{"type":"FeatureCollection","scaleMax":129.2,"features":[{"type":"Feature","geometry":{"type":"Point","coordinates":[-80.149558,43.471598]},"properties":{"StationName":"ABERFOYLE DS","CapacityMW":4.8,"VoltageKV":8.32,"UpstreamTS":"PUSLINCH DS","GeocodedPlace":"Aberfoyle, Puslinch, Wellington County, Southwestern Ontario, Ontario, N1H 6H9, Canada"}},{"type":"Feature","geometry":{"type":"Point","coordinates":[-79.278549,43.785353]},"properties":{"StationName":"AGINCOURT TS","CapacityMW":59.6,"VoltageKV":27.6,"UpstreamTS":null,"GeocodedPlace":"Agincourt, Scarborough\u2014Agincourt, Scarborough, Toronto, Golden Horseshoe, Ontario, M1S 5H5, Canada"}},{"type":"Feature","geometry":{"type":"Point","coordinates":[-79.795977,43.201601]},"properties":{"StationName":"ALBION TS","CapacityMW":35.2,"VoltageKV":12.5,"UpstreamTS":null,"GeocodedPlace":"Albion, Hamilton, Golden Horseshoe, Ontario, Canada"}},{"type":"Feature","geometry":{"type":"Point","coordinates":[-79.208336,43.075408]},"properties":{"StationName":"ALLANBURG TS","CapacityMW":24.8,"VoltageKV":27.6,"UpstreamTS":null,"GeocodedPlace":"Allanburg, Thorold, Niagara Region, Golden Horseshoe, Ontario, L2V 1A8, Canada"}},{"type":"Feature","geometry":{"type":"Point","coordinates":[-79.869232,44.153937]},"properties":{"StationName":"ALLISTON TS","CapacityMW":109.7,"VoltageKV":44.0,"UpstreamTS":null,"GeocodedPlace":"Alliston, New Tecumseth, Simcoe County, Central Ontario, Ontario, L9R 1A0, Canada"}},{"type":"Feature","geometry":{"type":"Point","coordinates":[-80.502219,43.730133]},"properties":{"StationName":"ALMA DS","CapacityMW":3.2,"VoltageKV":8.32,"UpstreamTS":"FERGUS TS","GeocodedPlace":"Alma, Mapleton, Wellington County, Southwestern Ontario, Ontario, N0B 1A0, Canada"}},{"type":"Feature","geometry":{"type":"Point","coordinates":[-80.838209,43.425006]},"properties":{"StationName":"AMULREE DS","CapacityMW":3.0,"VoltageKV":8.32,"UpstreamTS":"STRATFORD TS","GeocodedPlace":"Amulree, Perth East, Perth County, Southwestern Ontario, Ontario, Canada"}},{"type":"Feature","geometry":{"type":"Point","coordinates":[-79.888235,44.324741]},"properties":{"StationName":"ANGUS DS","CapacityMW":3.9,"VoltageKV":8.32,"UpstreamTS":"ALLISTON TS","GeocodedPlace":"Angus, Essa, Simcoe County, Central Ontario, Ontario, L0M 1B2, Canada"}},{"type":"Feature","geometry":{"type":"Point","coordinates":[-79.018221,44.450641]},"properties":{"StationName":"ARGYLE DS","CapacityMW":3.4,"VoltageKV":8.32,"UpstreamTS":"BEAVERTON TS","GeocodedPlace":"Argyle, Kawartha Lakes, Central Ontario, Ontario, Canada"}},{"type":"Feature","geometry":{"type":"Point","coordinates":[-79.470267,44.031151]},"properties":{"StationName":"ARMITAGE TS DESN1","CapacityMW":119.6,"VoltageKV":44.0,"UpstreamTS":null,"GeocodedPlace":"Armitage, Newmarket, East Gwillimbury, York Region, Golden Horseshoe, Ontario, L3X 1R1, Canada"}},{"type":"Feature","geometry":{"type":"Point","coordinates":[-79.470267,44.031151]},"properties":{"StationName":"ARMITAGE TS DESN2","CapacityMW":120.4,"VoltageKV":44.0,"UpstreamTS":null,"GeocodedPlace":"Armitage, Newmarket, East Gwillimbury, York Region, Golden Horseshoe, Ontario, L3X 1R1, Canada"}},{"type":"Feature","geometry":{"type":"Point","coordinates":[-79.297245,44.037872]},"properties":{"StationName":"BALLANTRAE DS","CapacityMW":4.0,"VoltageKV":8.32,"UpstreamTS":"ARMITAGE TS DESN2","GeocodedPlace":"Ballantrae, Whitchurch-Stouffville, York Region, Golden Horseshoe, Ontario, L4A 7X4, Canada"}},{"type":"Feature","geometry":{"type":"Point","coordinates":[-78.651321,44.1362]},"properties":{"StationName":"BALLYDUFF DS","CapacityMW":3.3,"VoltageKV":8.32,"UpstreamTS":"ENFIELD TS DESN1","GeocodedPlace":"Ballyduff, Kawartha Lakes, Central Ontario, Ontario, Canada"}},{"type":"Feature","geometry":{"type":"Point","coordinates":[-78.147481,44.018389]},"properties":{"StationName":"BALTIMORE DS","CapacityMW":2.4,"VoltageKV":8.32,"UpstreamTS":"PORT HOPE TS DESN1","GeocodedPlace":"Baltimore, Hamilton Township, Northumberland County, Central Ontario, Ontario, K9A 4J9, Canada"}},{"type":"Feature","geometry":{"type":"Point","coordinates":[-80.066553,44.287256]},"properties":{"StationName":"BANDA DS","CapacityMW":3.8,"VoltageKV":8.32,"UpstreamTS":"STAYNER TS","GeocodedPlace":"Banda, Mulmur, Dufferin County, Central Ontario, Ontario, L9V 0J7, Canada"}},{"type":"Feature","geometry":{"type":"Point","coordinates":[-79.69013,44.389321]},"properties":{"StationName":"BARRIE TS","CapacityMW":68.5,"VoltageKV":44.0,"UpstreamTS":null,"GeocodedPlace":"Barrie, Central Ontario, Ontario, Canada"}},{"type":"Feature","geometry":{"type":"Point","coordinates":[-79.475184,43.165458]},"properties":{"StationName":"BEAMSVILLE TS","CapacityMW":32.4,"VoltageKV":27.6,"UpstreamTS":null,"GeocodedPlace":"Beamsville, Lincoln, Niagara Region, Golden Horseshoe, Ontario, L0R 1B0, Canada"}},{"type":"Feature","geometry":{"type":"Point","coordinates":[-79.155019,44.429623]},"properties":{"StationName":"BEAVERTON TS","CapacityMW":76.6,"VoltageKV":44.0,"UpstreamTS":null,"GeocodedPlace":"Beaverton, Brock, Durham Region, Golden Horseshoe, Ontario, L0K 1A0, Canada"}},{"type":"Feature","geometry":{"type":"Point","coordinates":[-80.555127,43.465033]},"properties":{"StationName":"BEECHWOOD DS","CapacityMW":3.7,"VoltageKV":8.32,"UpstreamTS":"NAPANEE TS","GeocodedPlace":"Beechwood, Waterloo, Region of Waterloo, Southwestern Ontario, Ontario, N2L 2T9, Canada"}},{"type":"Feature","geometry":{"type":"Point","coordinates":[-80.72725,44.366937]},"properties":{"StationName":"BERKELEY DS","CapacityMW":1.8,"VoltageKV":8.32,"UpstreamTS":"OWEN SOUND TS","GeocodedPlace":"Berkeley, Chatsworth, Grey County, Southwestern Ontario, Ontario, N0H 1C0, Canada"}},{"type":"Feature","geometry":{"type":"Point","coordinates":[-78.566794,44.182585]},"properties":{"StationName":"BETHANY DS","CapacityMW":3.4,"VoltageKV":8.32,"UpstreamTS":"DOBBIN TS","GeocodedPlace":"Bethany, Kawartha Lakes, Central Ontario, Ontario, Canada"}},{"type":"Feature","geometry":{"type":"Point","coordinates":[-80.480112,43.326022]},"properties":{"StationName":"BLACK CORNERS DS","CapacityMW":3.8,"VoltageKV":8.32,"UpstreamTS":"ALMONTE TS","GeocodedPlace":"Black Horse Corners, North Dumfries, Region of Waterloo, Southwestern Ontario, Ontario, N0B 1E0, Canada"}},{"type":"Feature","geometry":{"type":"Point","coordinates":[-78.820017,44.1074]},"properties":{"StationName":"BLACKSTOCK DS","CapacityMW":3.0,"VoltageKV":8.32,"UpstreamTS":"ENFIELD TS DESN1","GeocodedPlace":"Blackstock, Scugog, Durham Region, Golden Horseshoe, Ontario, L0B 1B0, Canada"}},{"type":"Feature","geometry":{"type":"Point","coordinates":[-80.298415,42.889723]},"properties":{"StationName":"BLOOMSBURG DS","CapacityMW":31.0,"VoltageKV":27.6,"UpstreamTS":null,"GeocodedPlace":"Bloomsburg, Norfolk County, Southwestern Ontario, Ontario, N0E 2A0, Canada"}},{"type":"Feature","geometry":{"type":"Point","coordinates":[-79.060356,44.529634]},"properties":{"StationName":"BOLSOVER DS","CapacityMW":4.4,"VoltageKV":8.32,"UpstreamTS":"BEAVERTON TS","GeocodedPlace":"Bolsover, Kawartha Lakes, Central Ontario, Ontario, K0M 1B0, Canada"}},{"type":"Feature","geometry":{"type":"Point","coordinates":[-79.92633,43.773529]},"properties":{"StationName":"BOSTON MILLS DS","CapacityMW":3.9,"VoltageKV":12.5,"UpstreamTS":"ORANGEVILLE TS DESN2","GeocodedPlace":"Boston Mills, Caledon, Peel Region, Golden Horseshoe, Ontario, L7C 0K7, Canada"}},{"type":"Feature","geometry":{"type":"Point","coordinates":[-79.564707,44.114328]},"properties":{"StationName":"BRADFORD DS","CapacityMW":3.4,"VoltageKV":8.32,"UpstreamTS":"HOLLAND TS","GeocodedPlace":"Bradford, Bradford West Gwillimbury, Simcoe County, Central Ontario, Ontario, L3Z 0J1, Canada"}},{"type":"Feature","geometry":{"type":"Point","coordinates":[-79.72187,43.720472]},"properties":{"StationName":"BRAMALEA TS DESN1","CapacityMW":59.4,"VoltageKV":27.6,"UpstreamTS":null,"GeocodedPlace":"Bramalea, Brampton, Peel Region, Golden Horseshoe, Ontario, L6T 1B4, Canada"}},{"type":"Feature","geometry":{"type":"Point","coordinates":[-79.72187,43.720472]},"properties":{"StationName":"BRAMALEA TS DESN2","CapacityMW":51.6,"VoltageKV":44.0,"UpstreamTS":null,"GeocodedPlace":"Bramalea, Brampton, Peel Region, Golden Horseshoe, Ontario, L6T 1B4, Canada"}},{"type":"Feature","geometry":{"type":"Point","coordinates":[-79.72187,43.720472]},"properties":{"StationName":"BRAMALEA TS DESN3","CapacityMW":113.8,"VoltageKV":44.0,"UpstreamTS":null,"GeocodedPlace":"Bramalea, Brampton, Peel Region, Golden Horseshoe, Ontario, L6T 1B4, Canada"}},{"type":"Feature","geometry":{"type":"Point","coordinates":[-80.428822,43.10108]},"properties":{"StationName":"BRANT TS","CapacityMW":61.0,"VoltageKV":27.6,"UpstreamTS":null,"GeocodedPlace":"Brant County, Southwestern Ontario, Ontario, Canada"}},{"type":"Feature","geometry":{"type":"Point","coordinates":[-80.263173,43.140816]},"properties":{"StationName":"BRANTFORD TS","CapacityMW":72.5,"VoltageKV":27.6,"UpstreamTS":null,"GeocodedPlace":"Brantford, Southwestern Ontario, Ontario, Canada"}},{"type":"Feature","geometry":{"type":"Point","coordinates":[-78.384935,44.379345]},"properties":{"StationName":"BRIDGENORTH DS","CapacityMW":3.2,"VoltageKV":8.32,"UpstreamTS":"DOBBIN DS","GeocodedPlace":"Bridgenorth, Selwyn, Peterborough County, Central Ontario, Ontario, K9J 6X2, Canada"}},{"type":"Feature","geometry":{"type":"Point","coordinates":[-79.711828,43.394495]},"properties":{"StationName":"BRONTE TS","CapacityMW":54.0,"VoltageKV":27.6,"UpstreamTS":null,"GeocodedPlace":"Bronte, Oakville, Halton Region, Golden Horseshoe, Ontario, L6L 1H8, Canada"}},{"type":"Feature","geometry":{"type":"Point","coordinates":[-79.711828,43.394495]},"properties":{"StationName":"BRONTE TS DESN1","CapacityMW":63.9,"VoltageKV":27.6,"UpstreamTS":null,"GeocodedPlace":"Bronte, Oakville, Halton Region, Golden Horseshoe, Ontario, L6L 1H8, Canada"}},{"type":"Feature","geometry":{"type":"Point","coordinates":[-78.096923,43.975997]},"properties":{"StationName":"BROOKSIDE DS","CapacityMW":2.9,"VoltageKV":8.32,"UpstreamTS":"PORT HOPE TS DESN1","GeocodedPlace":"Brookside, Hamilton Township, Northumberland County, Central Ontario, Ontario, K9A 4J8, Canada"}},{"type":"Feature","geometry":{"type":"Point","coordinates":[-79.328584,44.222903]},"properties":{"StationName":"BROWN HILL DS","CapacityMW":5.0,"VoltageKV":8.32,"UpstreamTS":"BROWN HILL TS","GeocodedPlace":"Brown Hill, East Gwillimbury, York Region, Golden Horseshoe, Ontario, L0E 1A0, Canada"}},{"type":"Feature","geometry":{"type":"Point","coordinates":[-79.328584,44.222903]},"properties":{"StationName":"BROWN HILL TS","CapacityMW":82.5,"VoltageKV":44.0,"UpstreamTS":null,"GeocodedPlace":"Brown Hill, East Gwillimbury, York Region, Golden Horseshoe, Ontario, L0E 1A0, Canada"}},{"type":"Feature","geometry":{"type":"Point","coordinates":[-79.892691,43.233779]},"properties":{"StationName":"BUCHANAN TS","CapacityMW":110.3,"VoltageKV":27.6,"UpstreamTS":null,"GeocodedPlace":"Buchanan, Hamilton, Golden Horseshoe, Ontario, Canada"}},{"type":"Feature","geometry":{"type":"Point","coordinates":[-78.34841,44.556733]},"properties":{"StationName":"BUCKHORN DS","CapacityMW":4.7,"VoltageKV":12.5,"UpstreamTS":"OTONABEE TS DESN2","GeocodedPlace":"Buckhorn, Trent Lakes, Peterborough County, Central Ontario, Ontario, K0L 1J0, Canada"}},{"type":"Feature","geometry":{"type":"Point","coordinates":[-80.42927,43.103214]},"properties":{"StationName":"BURFORD DS","CapacityMW":2.2,"VoltageKV":8.32,"UpstreamTS":"BRANT TS","GeocodedPlace":"Burford, Brant County, Southwestern Ontario, Ontario, N0E 1A0, Canada"}},{"type":"Feature","geometry":{"type":"Point","coordinates":[-78.20615,44.558015]},"properties":{"StationName":"BURLEIGH DS","CapacityMW":6.7,"VoltageKV":12.5,"UpstreamTS":null,"GeocodedPlace":"Burleigh Falls, North Kawartha, Peterborough County, Central Ontario, Ontario, K0L 2C0, Canada"}},{"type":"Feature","geometry":{"type":"Point","coordinates":[-79.796684,43.324892]},"properties":{"StationName":"BURLINGTON TS","CapacityMW":94.5,"VoltageKV":27.6,"UpstreamTS":null,"GeocodedPlace":"Burlington, Halton Region, Golden Horseshoe, Ontario, Canada"}},{"type":"Feature","geometry":{"type":"Point","coordinates":[-79.36181,43.864365]},"properties":{"StationName":"BUTTONVILLE TS","CapacityMW":72.8,"VoltageKV":27.6,"UpstreamTS":null,"GeocodedPlace":"Buttonville, Markham, York Region, Golden Horseshoe, Ontario, L3R 0J9, Canada"}},{"type":"Feature","geometry":{"type":"Point","coordinates":[-79.906687,43.83207]},"properties":{"StationName":"CALEDON DS","CapacityMW":4.7,"VoltageKV":12.5,"UpstreamTS":"ORANGEVILLE TS DESN2","GeocodedPlace":"Caledon, Peel Region, Golden Horseshoe, Ontario, Canada"}},{"type":"Feature","geometry":{"type":"Point","coordinates":[-79.951908,43.073794]},"properties":{"StationName":"CALEDONIA TS","CapacityMW":55.1,"VoltageKV":27.6,"UpstreamTS":null,"GeocodedPlace":"Caledonia, Haldimand County, Southwestern Ontario, Ontario, N3W 1C1, Canada"}},{"type":"Feature","geometry":{"type":"Point","coordinates":[-78.774838,44.439132]},"properties":{"StationName":"CAMERON DS","CapacityMW":4.7,"VoltageKV":12.5,"UpstreamTS":"LINDSAY TS","GeocodedPlace":"Cameron, Kawartha Lakes, Central Ontario, Ontario, K0M 1G0, Canada"}},{"type":"Feature","geometry":{"type":"Point","coordinates":[-80.117464,44.000158]},"properties":{"StationName":"CAMILLA DS","CapacityMW":4.3,"VoltageKV":12.5,"UpstreamTS":"ORANGEVILLE TS DESN2","GeocodedPlace":"Camilla, Mono, Dufferin County, Central Ontario, Ontario, L9W 2Z1, Canada"}},{"type":"Feature","geometry":{"type":"Point","coordinates":[-78.374891,44.063969]},"properties":{"StationName":"CAMPBELLCROFT DS","CapacityMW":3.8,"VoltageKV":8.32,"UpstreamTS":"PORT HOPE TS DESN1","GeocodedPlace":"Campbellcroft, Port Hope, Northumberland County, Central Ontario, Ontario, L0A 1B0, Canada"}},{"type":"Feature","geometry":{"type":"Point","coordinates":[-79.749588,42.975954]},"properties":{"StationName":"CANFIELD DS","CapacityMW":3.1,"VoltageKV":8.32,"UpstreamTS":"CALEDONIA TS","GeocodedPlace":"Canfield, Haldimand County, Southwestern Ontario, Ontario, Canada"}},{"type":"Feature","geometry":{"type":"Point","coordinates":[-78.014617,44.995745]},"properties":{"StationName":"CARDIFF TS","CapacityMW":70.1,"VoltageKV":27.6,"UpstreamTS":null,"GeocodedPlace":"Cardiff, Highlands East, Haliburton County, Central Ontario, Ontario, K0L 1M0, Canada"}},{"type":"Feature","geometry":{"type":"Point","coordinates":[-79.980798,43.394227]},"properties":{"StationName":"CARLISLE DS","CapacityMW":3.5,"VoltageKV":8.32,"UpstreamTS":"DUNDAS TS #2","GeocodedPlace":"Carlisle, Hamilton, Golden Horseshoe, Ontario, L0R 1H0, Canada"}},{"type":"Feature","geometry":{"type":"Point","coordinates":[-77.938829,44.09231]},"properties":{"StationName":"CASTLETON DS","CapacityMW":3.4,"VoltageKV":8.32,"UpstreamTS":"PORT HOPE TS DESN1","GeocodedPlace":"Castleton, Cramahe, Northumberland County, Central Ontario, Ontario, K0K 1M0, Canada"}},{"type":"Feature","geometry":{"type":"Point","coordinates":[-80.022094,43.8243]},"properties":{"StationName":"CATARACT DS","CapacityMW":3.5,"VoltageKV":12.5,"UpstreamTS":"ORANGEVILLE TS DESN2","GeocodedPlace":"Cataract, Coulterville, Caledon, Peel Region, Golden Horseshoe, Ontario, L7K 0S3, Canada"}},{"type":"Feature","geometry":{"type":"Point","coordinates":[-78.468677,44.199676]},"properties":{"StationName":"CAVAN DS","CapacityMW":3.3,"VoltageKV":8.32,"UpstreamTS":"DOBBIN TS","GeocodedPlace":"Cavan, Cavan-Monaghan, Peterborough County, Central Ontario, Ontario, L0A 1C0, Canada"}},{"type":"Feature","geometry":{"type":"Point","coordinates":[-79.966533,44.983945]},"properties":{"StationName":"CECIL TS DESN1","CapacityMW":30.4,"VoltageKV":13.8,"UpstreamTS":null,"GeocodedPlace":"Cecil Island, Georgian Bay Township, District Municipality of Muskoka, Muskoka District, Central Ontario, Ontario, Canada"}},{"type":"Feature","geometry":{"type":"Point","coordinates":[-79.966533,44.983945]},"properties":{"StationName":"CECIL TS DESN2","CapacityMW":38.4,"VoltageKV":13.8,"UpstreamTS":null,"GeocodedPlace":"Cecil Island, Georgian Bay Township, District Municipality of Muskoka, Muskoka District, Central Ontario, Ontario, Canada"}},{"type":"Feature","geometry":{"type":"Point","coordinates":[-79.803603,43.92666]},"properties":{"StationName":"CEDAR MILLS DS","CapacityMW":14.6,"VoltageKV":27.6,"UpstreamTS":"KLEINBURG TS 44 KV","GeocodedPlace":"Cedar Mills, Caledon, Peel Region, Golden Horseshoe, Ontario, L7E 0L2, Canada"}},{"type":"Feature","geometry":{"type":"Point","coordinates":[-80.573365,44.244766]},"properties":{"StationName":"CEYLON DS","CapacityMW":3.6,"VoltageKV":8.32,"UpstreamTS":"HANOVER TS","GeocodedPlace":"Ceylon, Grey Highlands, Grey County, Southwestern Ontario, Ontario, N0C 1E0, Canada"}},{"type":"Feature","geometry":{"type":"Point","coordinates":[-80.897876,44.456081]},"properties":{"StationName":"CHATSWORTH DS","CapacityMW":4.0,"VoltageKV":8.32,"UpstreamTS":"OWEN SOUND TS","GeocodedPlace":"Chatsworth, Grey County, Southwestern Ontario, Ontario, Canada"}},{"type":"Feature","geometry":{"type":"Point","coordinates":[-79.141853,43.853914]},"properties":{"StationName":"CHERRYWOOD TS","CapacityMW":117.9,"VoltageKV":44.0,"UpstreamTS":null,"GeocodedPlace":"Cherrywood, Pickering, Durham Region, Golden Horseshoe, Ontario, L1V 6T3, Canada"}},{"type":"Feature","geometry":{"type":"Point","coordinates":[-79.741275,43.55852]},"properties":{"StationName":"CHURCHILL MEADOWS TS","CapacityMW":60.0,"VoltageKV":44.0,"UpstreamTS":null,"GeocodedPlace":"Churchill Meadows, Mississauga, Peel Region, Golden Horseshoe, Ontario, Canada"}},{"type":"Feature","geometry":{"type":"Point","coordinates":[-78.548447,43.965476]},"properties":{"StationName":"CLARKE TS","CapacityMW":70.8,"VoltageKV":27.6,"UpstreamTS":null,"GeocodedPlace":"Clarke, Clarington, Durham Region, Golden Horseshoe, Ontario, L1B 0R7, Canada"}},{"type":"Feature","geometry":{"type":"Point","coordinates":[-80.465773,44.548729]},"properties":{"StationName":"CLARKSBURG DS","CapacityMW":7.9,"VoltageKV":8.32,"UpstreamTS":"MEAFORD TS","GeocodedPlace":"Clarksburg, The Blue Mountains, Grey County, Southwestern Ontario, Ontario, N0H 1J0, Canada"}},{"type":"Feature","geometry":{"type":"Point","coordinates":[-79.013937,45.008907]},"properties":{"StationName":"CLEAR LAKE DS","CapacityMW":3.9,"VoltageKV":12.5,"UpstreamTS":"MUSKOKA TS","GeocodedPlace":"Clear Lake, Bracebridge, District Municipality of Muskoka, Muskoka District, Central Ontario, Ontario, P1L 1X1, Canada"}},{"type":"Feature","geometry":{"type":"Point","coordinates":[-78.798191,44.658576]},"properties":{"StationName":"COBOCONK DS","CapacityMW":5.0,"VoltageKV":12.5,"UpstreamTS":"LINDSAY TS","GeocodedPlace":"Coboconk, Kawartha Lakes, Central Ontario, Ontario, K0M 1K0, Canada"}},{"type":"Feature","geometry":{"type":"Point","coordinates":[-79.643976,44.70974]},"properties":{"StationName":"COLDWATER DS","CapacityMW":3.5,"VoltageKV":8.32,"UpstreamTS":"ORILLIA TS","GeocodedPlace":"Coldwater, Severn, Simcoe County, Central Ontario, Ontario, L0K 1E0, Canada"}},{"type":"Feature","geometry":{"type":"Point","coordinates":[-79.848752,44.028713]},"properties":{"StationName":"COLGAN DS","CapacityMW":5.0,"VoltageKV":27.6,"UpstreamTS":"EVERETT TS","GeocodedPlace":"Colgan, Adjala\u2013Tosorontio, Simcoe County, Central Ontario, Ontario, L0G 1W0, Canada"}},{"type":"Feature","geometry":{"type":"Point","coordinates":[-79.499388,43.800362]},"properties":{"StationName":"CONCORD DS","CapacityMW":4.0,"VoltageKV":8.32,"UpstreamTS":"BEAVERTON TS","GeocodedPlace":"Concord, Vaughan, York Region, Golden Horseshoe, Ontario, L4K 1Y7, Canada"}},{"type":"Feature","geometry":{"type":"Point","coordinates":[-79.616408,43.580233]},"properties":{"StationName":"COOKSVILLE TS DESN1","CapacityMW":57.1,"VoltageKV":27.6,"UpstreamTS":null,"GeocodedPlace":"Cooksville, Mississauga, Peel Region, Golden Horseshoe, Ontario, Canada"}},{"type":"Feature","geometry":{"type":"Point","coordinates":[-79.616408,43.580233]},"properties":{"StationName":"COOKSVILLE TS DESN2","CapacityMW":59.2,"VoltageKV":27.6,"UpstreamTS":null,"GeocodedPlace":"Cooksville, Mississauga, Peel Region, Golden Horseshoe, Ontario, Canada"}},{"type":"Feature","geometry":{"type":"Point","coordinates":[-80.326943,44.139874]},"properties":{"StationName":"CORBETTON DS","CapacityMW":3.4,"VoltageKV":8.32,"UpstreamTS":"ORANGEVILLE TS DESN2","GeocodedPlace":"Corbetton, Melancthon, Dufferin County, Central Ontario, Ontario, N0C 1B0, Canada"}},{"type":"Feature","geometry":{"type":"Point","coordinates":[-78.778046,43.911772]},"properties":{"StationName":"COURTICE DS","CapacityMW":3.2,"VoltageKV":8.32,"UpstreamTS":"WILSON TS DESN2","GeocodedPlace":"Courtice, Durham Region, Golden Horseshoe, Ontario, Canada"}},{"type":"Feature","geometry":{"type":"Point","coordinates":[-80.629735,42.844017]},"properties":{"StationName":"COURTLAND DS","CapacityMW":3.4,"VoltageKV":8.32,"UpstreamTS":"TILLSONBURG TS","GeocodedPlace":"Courtland, Norfolk County, Southwestern Ontario, Ontario, N0J 1E0, Canada"}},{"type":"Feature","geometry":{"type":"Point","coordinates":[-79.725798,44.529858]},"properties":{"StationName":"CRAIGHURST DS","CapacityMW":3.7,"VoltageKV":8.32,"UpstreamTS":"MIDHURST TS - DESN1","GeocodedPlace":"Craighurst, Oro-Medonte, Simcoe County, Central Ontario, Ontario, L4M 4Y8, Canada"}},{"type":"Feature","geometry":{"type":"Point","coordinates":[-80.108415,44.327104]},"properties":{"StationName":"CREEMORE DS","CapacityMW":3.7,"VoltageKV":8.32,"UpstreamTS":"STAYNER TS","GeocodedPlace":"Creemore, Clearview, Simcoe County, Central Ontario, Ontario, L0M 1G0, Canada"}},{"type":"Feature","geometry":{"type":"Point","coordinates":[-80.613904,42.633838]},"properties":{"StationName":"CULTUS DS","CapacityMW":1.3,"VoltageKV":8.32,"UpstreamTS":"TILLSONBURG TS","GeocodedPlace":"Cultus, Norfolk County, Southwestern Ontario, Ontario, N0E 1C0, Canada"}},{"type":"Feature","geometry":{"type":"Point","coordinates":[-79.911188,42.936763]},"properties":{"StationName":"DECEWSVILLE DS","CapacityMW":2.9,"VoltageKV":8.32,"UpstreamTS":"CALEDONIA TS","GeocodedPlace":"Decewsville, Haldimand County, Southwestern Ontario, Ontario, N0A 1E0, Canada"}},{"type":"Feature","geometry":{"type":"Point","coordinates":[-80.498371,42.854496]},"properties":{"StationName":"DELHI DS #2","CapacityMW":3.1,"VoltageKV":8.32,"UpstreamTS":"NORFOLK TS","GeocodedPlace":"Delhi, Norfolk County, Southwestern Ontario, Ontario, N4B 2K6, Canada"}},{"type":"Feature","geometry":{"type":"Point","coordinates":[-80.671134,43.755055]},"properties":{"StationName":"DRAYTON DS","CapacityMW":6.4,"VoltageKV":8.32,"UpstreamTS":"PALMERSTON TS","GeocodedPlace":"Drayton, Mapleton, Wellington County, Southwestern Ontario, Ontario, N0G 1P0, Canada"}},{"type":"Feature","geometry":{"type":"Point","coordinates":[-80.552421,43.236717]},"properties":{"StationName":"DRUMBO DS","CapacityMW":1.3,"VoltageKV":8.32,"UpstreamTS":"WOLVERTON DS","GeocodedPlace":"Drumbo, Blandford-Blenheim, Oxford County, Southwestern Ontario, Ontario, N0J 1G0, Canada"}},{"type":"Feature","geometry":{"type":"Point","coordinates":[-80.026079,43.191305]},"properties":{"StationName":"DUFF DS","CapacityMW":3.2,"VoltageKV":8.32,"UpstreamTS":"NEBO TS DESN1","GeocodedPlace":"Duff's Corners, Hamilton, Golden Horseshoe, Ontario, Canada"}},{"type":"Feature","geometry":{"type":"Point","coordinates":[-80.169194,44.04975]},"properties":{"StationName":"DUFFERIN TS DESN1","CapacityMW":14.1,"VoltageKV":13.8,"UpstreamTS":null,"GeocodedPlace":"Dufferin County, Central Ontario, Ontario, Canada"}},{"type":"Feature","geometry":{"type":"Point","coordinates":[-80.169194,44.04975]},"properties":{"StationName":"DUFFERIN TS DESN2","CapacityMW":22.0,"VoltageKV":13.8,"UpstreamTS":null,"GeocodedPlace":"Dufferin County, Central Ontario, Ontario, Canada"}},{"type":"Feature","geometry":{"type":"Point","coordinates":[-79.954634,43.26619]},"properties":{"StationName":"DUNDAS TS","CapacityMW":70.6,"VoltageKV":27.6,"UpstreamTS":null,"GeocodedPlace":"Dundas, Central Business District, Hamilton, Golden Horseshoe, Ontario, L9H 1T7, Canada"}},{"type":"Feature","geometry":{"type":"Point","coordinates":[-79.954634,43.26619]},"properties":{"StationName":"DUNDAS TS #2","CapacityMW":51.8,"VoltageKV":27.6,"UpstreamTS":null,"GeocodedPlace":"Dundas, Central Business District, Hamilton, Golden Horseshoe, Ontario, L9H 1T7, Canada"}},{"type":"Feature","geometry":{"type":"Point","coordinates":[-80.174923,44.296734]},"properties":{"StationName":"DUNEDIN DS","CapacityMW":3.8,"VoltageKV":8.32,"UpstreamTS":"STAYNER TS","GeocodedPlace":"Dunedin, Clearview, Simcoe County, Central Ontario, Ontario, Canada"}},{"type":"Feature","geometry":{"type":"Point","coordinates":[-79.618846,42.905917]},"properties":{"StationName":"DUNNVILLE DS","CapacityMW":2.9,"VoltageKV":8.32,"UpstreamTS":"DUNNVILLE TS","GeocodedPlace":"Dunnville, Haldimand County, Southwestern Ontario, Ontario, N1A 1R3, Canada"}},{"type":"Feature","geometry":{"type":"Point","coordinates":[-79.618846,42.905917]},"properties":{"StationName":"DUNNVILLE TS","CapacityMW":26.9,"VoltageKV":27.6,"UpstreamTS":null,"GeocodedPlace":"Dunnville, Haldimand County, Southwestern Ontario, Ontario, N1A 1R3, Canada"}},{"type":"Feature","geometry":{"type":"Point","coordinates":[-78.642599,44.45165]},"properties":{"StationName":"DUNSFORD DS","CapacityMW":4.4,"VoltageKV":12.5,"UpstreamTS":"LINDSAY TS","GeocodedPlace":"Dunsford, Kawartha Lakes, Central Ontario, Ontario, K0M 1L0, Canada"}},{"type":"Feature","geometry":{"type":"Point","coordinates":[-80.194542,44.397939]},"properties":{"StationName":"DUNTROON DS","CapacityMW":3.9,"VoltageKV":8.32,"UpstreamTS":"STAYNER TS","GeocodedPlace":"Duntroon, Clearview, Simcoe County, Central Ontario, Ontario, L0M 1H0, Canada"}},{"type":"Feature","geometry":{"type":"Point","coordinates":[-79.284682,43.767081]},"properties":{"StationName":"ELLESMERE TS","CapacityMW":85.9,"VoltageKV":27.6,"UpstreamTS":null,"GeocodedPlace":"Ellesmere, Scarborough Centre, Scarborough, Toronto, Golden Horseshoe, Ontario, M1P 2W5, Canada"}},{"type":"Feature","geometry":{"type":"Point","coordinates":[-80.557654,43.6]},"properties":{"StationName":"ELMIRA TS","CapacityMW":31.0,"VoltageKV":27.6,"UpstreamTS":null,"GeocodedPlace":"Elmira, Woolwich, Region of Waterloo, Southwestern Ontario, Ontario, N3B 1Z4, Canada"}},{"type":"Feature","geometry":{"type":"Point","coordinates":[-78.431775,44.40996]},"properties":{"StationName":"ENNISMORE DS","CapacityMW":3.3,"VoltageKV":8.32,"UpstreamTS":"DOBBIN TS","GeocodedPlace":"Ennismore, Selwyn, Peterborough County, Central Ontario, Ontario, K0L 1T0, Canada"}},{"type":"Feature","geometry":{"type":"Point","coordinates":[-80.216469,43.617405]},"properties":{"StationName":"ERAMOSA DS","CapacityMW":3.2,"VoltageKV":8.32,"UpstreamTS":"FERGUS TS","GeocodedPlace":"Eramosa, Guelph/Eramosa, Wellington County, Southwestern Ontario, Ontario, N1E 0K9, Canada"}},{"type":"Feature","geometry":{"type":"Point","coordinates":[-80.070076,43.77506]},"properties":{"StationName":"ERIN DS","CapacityMW":5.0,"VoltageKV":12.5,"UpstreamTS":"ORANGEVILLE TS DESN2","GeocodedPlace":"Erin, Wellington County, Southwestern Ontario, Ontario, Canada"}},{"type":"Feature","geometry":{"type":"Point","coordinates":[-79.642872,43.557445]},"properties":{"StationName":"ERINDALE TS DESN1","CapacityMW":46.8,"VoltageKV":27.6,"UpstreamTS":null,"GeocodedPlace":"Erindale, Mississauga, Peel Region, Golden Horseshoe, Ontario, Canada"}},{"type":"Feature","geometry":{"type":"Point","coordinates":[-79.642872,43.557445]},"properties":{"StationName":"ERINDALE TS DESN2","CapacityMW":93.6,"VoltageKV":44.0,"UpstreamTS":null,"GeocodedPlace":"Erindale, Mississauga, Peel Region, Golden Horseshoe, Ontario, Canada"}},{"type":"Feature","geometry":{"type":"Point","coordinates":[-79.642872,43.557445]},"properties":{"StationName":"ERINDALE TS DESN3","CapacityMW":102.9,"VoltageKV":44.0,"UpstreamTS":null,"GeocodedPlace":"Erindale, Mississauga, Peel Region, Golden Horseshoe, Ontario, Canada"}},{"type":"Feature","geometry":{"type":"Point","coordinates":[-79.937746,44.195609]},"properties":{"StationName":"EVERETT DS","CapacityMW":5.0,"VoltageKV":8.32,"UpstreamTS":"EVERETT TS","GeocodedPlace":"Everett, Adjala\u2013Tosorontio, Simcoe County, Central Ontario, Ontario, L0M 1J0, Canada"}},{"type":"Feature","geometry":{"type":"Point","coordinates":[-79.937746,44.195609]},"properties":{"StationName":"EVERETT TS","CapacityMW":63.8,"VoltageKV":44.0,"UpstreamTS":null,"GeocodedPlace":"Everett, Adjala\u2013Tosorontio, Simcoe County, Central Ontario, Ontario, L0M 1J0, Canada"}},{"type":"Feature","geometry":{"type":"Point","coordinates":[-79.5092,43.952189]},"properties":{"StationName":"EVERSLEY DS","CapacityMW":10.7,"VoltageKV":13.8,"UpstreamTS":"KLEINBURG TS 44 KV","GeocodedPlace":"Eversley, King City, King, York Region, Golden Horseshoe, Ontario, L7B 1K5, Canada"}},{"type":"Feature","geometry":{"type":"Point","coordinates":[-80.155989,43.663857]},"properties":{"StationName":"EVERTON DS","CapacityMW":3.1,"VoltageKV":8.32,"UpstreamTS":"FERGUS TS","GeocodedPlace":"Everton, Guelph/Eramosa, Wellington County, Southwestern Ontario, Ontario, N1H 6H7, Canada"}},{"type":"Feature","geometry":{"type":"Point","coordinates":[-79.45031,43.695689]},"properties":{"StationName":"FAIRBANK TS DESN1","CapacityMW":62.9,"VoltageKV":27.6,"UpstreamTS":null,"GeocodedPlace":"Fairbank, Eglinton\u2014Lawrence, York, Toronto, Golden Horseshoe, Ontario, M6E 2J3, Canada"}},{"type":"Feature","geometry":{"type":"Point","coordinates":[-79.45031,43.695689]},"properties":{"StationName":"FAIRBANK TS DESN2","CapacityMW":61.5,"VoltageKV":27.6,"UpstreamTS":null,"GeocodedPlace":"Fairbank, Eglinton\u2014Lawrence, York, Toronto, Golden Horseshoe, Ontario, M6E 2J3, Canada"}},{"type":"Feature","geometry":{"type":"Point","coordinates":[-80.491982,43.467498]},"properties":{"StationName":"FAIRFIELD DS","CapacityMW":3.6,"VoltageKV":8.32,"UpstreamTS":"KINGSTON GARDINER TS DESN1","GeocodedPlace":"Fairfield, Kitchener, Region of Waterloo, Southwestern Ontario, Ontario, Canada"}},{"type":"Feature","geometry":{"type":"Point","coordinates":[-78.73638,44.53703]},"properties":{"StationName":"FENELON FALLS DS","CapacityMW":2.8,"VoltageKV":12.5,"UpstreamTS":"BEAVERTON TS","GeocodedPlace":"Fenelon Falls, Kawartha Lakes, Central Ontario, Ontario, K0M 1N0, Canada"}},{"type":"Feature","geometry":{"type":"Point","coordinates":[-80.377937,43.705944]},"properties":{"StationName":"FERGUS TS","CapacityMW":96.1,"VoltageKV":44.0,"UpstreamTS":null,"GeocodedPlace":"Fergus, Centre Wellington, Wellington County, Southwestern Ontario, Ontario, N1M 2J6, Canada"}},{"type":"Feature","geometry":{"type":"Point","coordinates":[-79.818447,44.53112]},"properties":{"StationName":"FERGUSONVALE DS","CapacityMW":4.0,"VoltageKV":8.32,"UpstreamTS":"MIDHURST TS - DESN1","GeocodedPlace":"Fergusonvale Community, Springwater, Simcoe County, Central Ontario, Ontario, L0L 2K0, Canada"}},{"type":"Feature","geometry":{"type":"Point","coordinates":[-80.039186,43.400745]},"properties":{"StationName":"FREELTON DS","CapacityMW":3.4,"VoltageKV":8.32,"UpstreamTS":"DUNDAS TS #2","GeocodedPlace":"Freelton, Hamilton, Golden Horseshoe, Ontario, L8B 0Z4, Canada"}},{"type":"Feature","geometry":{"type":"Point","coordinates":[-80.658484,42.685459]},"properties":{"StationName":"FROGMORE DS","CapacityMW":3.0,"VoltageKV":8.32,"UpstreamTS":"TILLSONBURG TS","GeocodedPlace":"Frogmore, Norfolk County, Southwestern Ontario, Ontario, Canada"}},{"type":"Feature","geometry":{"type":"Point","coordinates":[-80.315247,43.358987]},"properties":{"StationName":"GALT TS","CapacityMW":78.6,"VoltageKV":27.6,"UpstreamTS":null,"GeocodedPlace":"Galt, Cambridge, Region of Waterloo, Southwestern Ontario, Ontario, N1R 1V4, Canada"}},{"type":"Feature","geometry":{"type":"Point","coordinates":[-80.706409,43.656718]},"properties":{"StationName":"GLEN ALLAN DS","CapacityMW":3.6,"VoltageKV":8.32,"UpstreamTS":"ELMIRA TS","GeocodedPlace":"Glen Allan, Mapleton, Wellington County, Southwestern Ontario, Ontario, Canada"}},{"type":"Feature","geometry":{"type":"Point","coordinates":[-78.885714,44.482518]},"properties":{"StationName":"GLENARM DS","CapacityMW":3.8,"VoltageKV":12.5,"UpstreamTS":"BEAVERTON TS","GeocodedPlace":"Glenarm, Kawartha Lakes, Central Ontario, Ontario, Canada"}},{"type":"Feature","geometry":{"type":"Point","coordinates":[-79.196127,44.037202]},"properties":{"StationName":"GOODWOOD DS","CapacityMW":3.3,"VoltageKV":8.32,"UpstreamTS":"ARMITAGE TS DESN2","GeocodedPlace":"Goodwood, Uxbridge, Durham Region, Golden Horseshoe, Ontario, L0C 1A0, Canada"}},{"type":"Feature","geometry":{"type":"Point","coordinates":[-79.3815,43.941605]},"properties":{"StationName":"GORMLEY DS","CapacityMW":2.9,"VoltageKV":8.32,"UpstreamTS":"ARMITAGE TS DESN2","GeocodedPlace":"Gormley, Whitchurch-Stouffville, York Region, Golden Horseshoe, Ontario, L4A 2J4, Canada"}},{"type":"Feature","geometry":{"type":"Point","coordinates":[-78.02586,43.99205]},"properties":{"StationName":"GRAFTON DS","CapacityMW":3.7,"VoltageKV":8.32,"UpstreamTS":"PORT HOPE TS DESN1","GeocodedPlace":"Grafton, Alnwick/Haldimand, Northumberland County, Central Ontario, Ontario, K0K 2G0, Canada"}},{"type":"Feature","geometry":{"type":"Point","coordinates":[-80.315247,43.899122]},"properties":{"StationName":"GRAND VALLEY DS #2","CapacityMW":1.9,"VoltageKV":12.5,"UpstreamTS":"ORANGEVILLE TS DESN2","GeocodedPlace":"Grand Valley, Dufferin County, Central Ontario, Ontario, Canada"}},{"type":"Feature","geometry":{"type":"Point","coordinates":[-79.373131,44.91741]},"properties":{"StationName":"GRAVENHURST DS","CapacityMW":4.3,"VoltageKV":12.5,"UpstreamTS":"BRACEBRIDGE TS","GeocodedPlace":"Gravenhurst, District Municipality of Muskoka, Muskoka District, Central Ontario, Ontario, Canada"}},{"type":"Feature","geometry":{"type":"Point","coordinates":[-79.014939,44.152174]},"properties":{"StationName":"GREENBANK DS","CapacityMW":2.9,"VoltageKV":8.32,"UpstreamTS":"BEAVERTON TS","GeocodedPlace":"Greenbank, Scugog, Durham Region, Golden Horseshoe, Ontario, L0C 1B0, Canada"}},{"type":"Feature","geometry":{"type":"Point","coordinates":[-80.41355,42.796805]},"properties":{"StationName":"GREENS CORNER DS","CapacityMW":3.5,"VoltageKV":8.32,"UpstreamTS":"NORFOLK TS","GeocodedPlace":"Greens Corner, Norfolk County, Southwestern Ontario, Ontario, N3Y 4K5, Canada"}},{"type":"Feature","geometry":{"type":"Point","coordinates":[-79.996582,43.274734]},"properties":{"StationName":"GREENSVILLE DS","CapacityMW":5.0,"VoltageKV":8.32,"UpstreamTS":"DUNDAS TS #2","GeocodedPlace":"Greensville, Hamilton, Golden Horseshoe, Ontario, L9H 4Y9, Canada"}},{"type":"Feature","geometry":{"type":"Point","coordinates":[-80.249328,43.546052]},"properties":{"StationName":"GUELPH DS","CapacityMW":3.3,"VoltageKV":8.32,"UpstreamTS":"FERGUS TS","GeocodedPlace":"Guelph, Southwestern Ontario, Ontario, Canada"}},{"type":"Feature","geometry":{"type":"Point","coordinates":[-79.87714,43.504428]},"properties":{"StationName":"HALTON TS","CapacityMW":90.7,"VoltageKV":27.6,"UpstreamTS":null,"GeocodedPlace":"Halton Region, Golden Horseshoe, Ontario, Canada"}},{"type":"Feature","geometry":{"type":"Point","coordinates":[-78.746938,43.97175]},"properties":{"StationName":"HAMPTON DS","CapacityMW":3.2,"VoltageKV":8.32,"UpstreamTS":"WILSON TS DESN2","GeocodedPlace":"Hampton, Clarington, Durham Region, Golden Horseshoe, Ontario, L0B 1J0, Canada"}},{"type":"Feature","geometry":{"type":"Point","coordinates":[-80.229498,43.515178]},"properties":{"StationName":"HANLON TS","CapacityMW":29.6,"VoltageKV":13.8,"UpstreamTS":null,"GeocodedPlace":"Hanlon Creek Neighbourhood Group, Guelph, Southwestern Ontario, Ontario, Canada"}},{"type":"Feature","geometry":{"type":"Point","coordinates":[-80.869013,43.911831]},"properties":{"StationName":"HARRISTON DS #2","CapacityMW":3.8,"VoltageKV":8.32,"UpstreamTS":"PALMERSTON TS","GeocodedPlace":"Harrison, Minto, Wellington County, Southwestern Ontario, Ontario, N0G 1Z0, Canada"}},{"type":"Feature","geometry":{"type":"Point","coordinates":[-79.467436,44.497137]},"properties":{"StationName":"HAWKESTONE DS","CapacityMW":3.3,"VoltageKV":8.32,"UpstreamTS":"ORILLIA TS","GeocodedPlace":"Hawkestone, Oro-Medonte, Simcoe County, Central Ontario, Ontario, L0L 1T0, Canada"}},{"type":"Feature","geometry":{"type":"Point","coordinates":[-80.143989,43.790408]},"properties":{"StationName":"HILLSBURGH DS","CapacityMW":4.1,"VoltageKV":12.5,"UpstreamTS":"ORANGEVILLE TS DESN2","GeocodedPlace":"Hillsburgh, Erin, Wellington County, Southwestern Ontario, Ontario, N0B 1Z0, Canada"}},{"type":"Feature","geometry":{"type":"Point","coordinates":[-79.968896,44.022441]},"properties":{"StationName":"HOCKLEY DS","CapacityMW":4.0,"VoltageKV":12.5,"UpstreamTS":"ORANGEVILLE TS DESN2","GeocodedPlace":"Hockley Village, Adjala\u2013Tosorontio, Simcoe County, Central Ontario, Ontario, L9W 6N4, Canada"}},{"type":"Feature","geometry":{"type":"Point","coordinates":[-79.491477,44.10151]},"properties":{"StationName":"HOLLAND LANDING DS","CapacityMW":3.6,"VoltageKV":8.32,"UpstreamTS":"BROWN HILL TS","GeocodedPlace":"Holland Landing, East Gwillimbury, York Region, Golden Horseshoe, Ontario, L9N 1L8, Canada"}},{"type":"Feature","geometry":{"type":"Point","coordinates":[-80.760081,44.059669]},"properties":{"StationName":"HOLSTEIN DS","CapacityMW":3.5,"VoltageKV":8.32,"UpstreamTS":"HANOVER TS","GeocodedPlace":"Holstein, Southgate, Grey County, Southwestern Ontario, Ontario, Canada"}},{"type":"Feature","geometry":{"type":"Point","coordinates":[-80.204868,44.153732]},"properties":{"StationName":"HORNING MILLS DS","CapacityMW":3.8,"VoltageKV":8.32,"UpstreamTS":"ORANGEVILLE TS DESN2","GeocodedPlace":"Horning's Mills, Melancthon, Dufferin County, Central Ontario, Ontario, L9V 1V4, Canada"}},{"type":"Feature","geometry":{"type":"Point","coordinates":[-79.938876,43.224987]},"properties":{"StationName":"HORNING TS","CapacityMW":61.0,"VoltageKV":13.8,"UpstreamTS":null,"GeocodedPlace":"Horning, Hamilton, Golden Horseshoe, Ontario, Canada"}},{"type":"Feature","geometry":{"type":"Point","coordinates":[-80.88211,43.037725]},"properties":{"StationName":"INGERSOLL TS","CapacityMW":86.7,"VoltageKV":27.6,"UpstreamTS":null,"GeocodedPlace":"Ingersoll, Oxford County, Southwestern Ontario, Ontario, Canada"}},{"type":"Feature","geometry":{"type":"Point","coordinates":[-80.113941,42.884471]},"properties":{"StationName":"JARVIS DS","CapacityMW":2.6,"VoltageKV":8.32,"UpstreamTS":"JARVIS TS","GeocodedPlace":"Jarvis, Haldimand County, Southwestern Ontario, Ontario, N0A 1J0, Canada"}},{"type":"Feature","geometry":{"type":"Point","coordinates":[-80.113941,42.884471]},"properties":{"StationName":"JARVIS TS","CapacityMW":67.6,"VoltageKV":27.6,"UpstreamTS":null,"GeocodedPlace":"Jarvis, Haldimand County, Southwestern Ontario, Ontario, N0A 1J0, Canada"}},{"type":"Feature","geometry":{"type":"Point","coordinates":[-79.848408,43.266215]},"properties":{"StationName":"KEITH TS DESN1","CapacityMW":60.2,"VoltageKV":27.6,"UpstreamTS":null,"GeocodedPlace":"Industrial Sector A And Keith, Hamilton, Golden Horseshoe, Ontario, Canada"}},{"type":"Feature","geometry":{"type":"Point","coordinates":[-80.632836,43.898998]},"properties":{"StationName":"KENILWORTH DS","CapacityMW":2.6,"VoltageKV":8.32,"UpstreamTS":"PALMERSTON TS","GeocodedPlace":"Kenilworth, Wellington North, Wellington County, Southwestern Ontario, Ontario, N0G 2E0, Canada"}},{"type":"Feature","geometry":{"type":"Point","coordinates":[-80.632836,43.898998]},"properties":{"StationName":"KENILWORTH TS DESN1","CapacityMW":10.6,"VoltageKV":14.2,"UpstreamTS":null,"GeocodedPlace":"Kenilworth, Wellington North, Wellington County, Southwestern Ontario, Ontario, N0G 2E0, Canada"}},{"type":"Feature","geometry":{"type":"Point","coordinates":[-80.632836,43.898998]},"properties":{"StationName":"KENILWORTH TS DESN2","CapacityMW":74.6,"VoltageKV":14.2,"UpstreamTS":null,"GeocodedPlace":"Kenilworth, Wellington North, Wellington County, Southwestern Ontario, Ontario, N0G 2E0, Canada"}},{"type":"Feature","geometry":{"type":"Point","coordinates":[-79.468656,44.239617]},"properties":{"StationName":"KESWICK DS","CapacityMW":5.0,"VoltageKV":8.32,"UpstreamTS":"BROWN HILL TS","GeocodedPlace":"Keswick, Georgina, York Region, Golden Horseshoe, Ontario, L4P 3W8, Canada"}},{"type":"Feature","geometry":{"type":"Point","coordinates":[-80.537232,44.385013]},"properties":{"StationName":"KIMBERLEY DS","CapacityMW":3.7,"VoltageKV":8.32,"UpstreamTS":"MEAFORD TS","GeocodedPlace":"Kimberley, Grey Highlands, Grey County, Southwestern Ontario, Ontario, Canada"}},{"type":"Feature","geometry":{"type":"Point","coordinates":[-78.652472,44.78324]},"properties":{"StationName":"KINMOUNT DS","CapacityMW":4.2,"VoltageKV":12.5,"UpstreamTS":"MINDEN TS","GeocodedPlace":"Kinmount, Kawartha Lakes, Central Ontario, Ontario, K0M 2A0, Canada"}},{"type":"Feature","geometry":{"type":"Point","coordinates":[-78.979817,44.563366]},"properties":{"StationName":"KIRKFIELD DS","CapacityMW":4.0,"VoltageKV":8.32,"UpstreamTS":"BEAVERTON TS","GeocodedPlace":"Kirkfield, Kawartha Lakes, Central Ontario, Ontario, K0M 2B0, Canada"}},{"type":"Feature","geometry":{"type":"Point","coordinates":[-79.628906,43.844184]},"properties":{"StationName":"KLEINBURG TS","CapacityMW":83.1,"VoltageKV":44.0,"UpstreamTS":null,"GeocodedPlace":"Kleinburg, Vaughan, York Region, Golden Horseshoe, Ontario, L0J 1C0, Canada"}},{"type":"Feature","geometry":{"type":"Point","coordinates":[-79.208406,44.548667]},"properties":{"StationName":"LAGOON CITY DS","CapacityMW":3.5,"VoltageKV":8.32,"UpstreamTS":"BEAVERTON TS","GeocodedPlace":"Lagoon City, Ramara Township, Simcoe County, Central Ontario, Ontario, L0K 1B0, Canada"}},{"type":"Feature","geometry":{"type":"Point","coordinates":[-78.272346,44.42294]},"properties":{"StationName":"LAKEFIELD DS #1","CapacityMW":4.0,"VoltageKV":12.5,"UpstreamTS":"OTONABEE TS DESN2","GeocodedPlace":"Lakefield, Selwyn, Peterborough County, Central Ontario, Ontario, K0L 2H0, Canada"}},{"type":"Feature","geometry":{"type":"Point","coordinates":[-78.272346,44.42294]},"properties":{"StationName":"LAKEFIELD DS #2","CapacityMW":3.4,"VoltageKV":4.16,"UpstreamTS":"OTONABEE TS DESN2","GeocodedPlace":"Lakefield, Selwyn, Peterborough County, Central Ontario, Ontario, K0L 2H0, Canada"}},{"type":"Feature","geometry":{"type":"Point","coordinates":[-79.36811,43.704803]},"properties":{"StationName":"LEASIDE TS DESN1","CapacityMW":15.9,"VoltageKV":13.8,"UpstreamTS":null,"GeocodedPlace":"Leaside, Don Valley West, East York, Toronto, Golden Horseshoe, Ontario, M4G 3K2, Canada"}},{"type":"Feature","geometry":{"type":"Point","coordinates":[-79.36811,43.704803]},"properties":{"StationName":"LEASIDE TS DESN2","CapacityMW":18.0,"VoltageKV":27.6,"UpstreamTS":null,"GeocodedPlace":"Leaside, Don Valley West, East York, Toronto, Golden Horseshoe, Ontario, M4G 3K2, Canada"}},{"type":"Feature","geometry":{"type":"Point","coordinates":[-78.736994,44.355127]},"properties":{"StationName":"LINDSAY TS","CapacityMW":88.0,"VoltageKV":44.0,"UpstreamTS":null,"GeocodedPlace":"Lindsay, Kawartha Lakes, Central Ontario, Ontario, K9V 2Y5, Canada"}},{"type":"Feature","geometry":{"type":"Point","coordinates":[-79.770602,43.571291]},"properties":{"StationName":"LISGAR TS","CapacityMW":25.5,"VoltageKV":12.5,"UpstreamTS":null,"GeocodedPlace":"Lisgar, Mississauga, Peel Region, Golden Horseshoe, Ontario, Canada"}},{"type":"Feature","geometry":{"type":"Point","coordinates":[-78.85996,44.285547]},"properties":{"StationName":"LITTLE BRITAIN DS","CapacityMW":3.3,"VoltageKV":8.32,"UpstreamTS":"LINDSAY TS","GeocodedPlace":"Little Britain, Kawartha Lakes, Central Ontario, Ontario, K0M 2C0, Canada"}},{"type":"Feature","geometry":{"type":"Point","coordinates":[-79.616687,43.534854]},"properties":{"StationName":"LORNE PARK TS","CapacityMW":72.4,"VoltageKV":27.6,"UpstreamTS":null,"GeocodedPlace":"Lorne Park, Mississauga, Peel Region, Golden Horseshoe, Ontario, Canada"}},{"type":"Feature","geometry":{"type":"Point","coordinates":[-79.924748,44.927718]},"properties":{"StationName":"MACKAY TS","CapacityMW":2.4,"VoltageKV":23.0,"UpstreamTS":null,"GeocodedPlace":"Mackay Island, Georgian Bay Township, District Municipality of Muskoka, Muskoka District, Central Ontario, Ontario, Canada"}},{"type":"Feature","geometry":{"type":"Point","coordinates":[-79.781194,43.859505]},"properties":{"StationName":"MACVILLE DS","CapacityMW":3.4,"VoltageKV":8.32,"UpstreamTS":"KLEINBURG TS 44 KV","GeocodedPlace":"Macville, Bolton, Caledon, Peel Region, Golden Horseshoe, Ontario, L7C 0S3, Canada"}},{"type":"Feature","geometry":{"type":"Point","coordinates":[-80.263096,44.496871]},"properties":{"StationName":"MAIR MILLS DS","CapacityMW":3.5,"VoltageKV":8.32,"UpstreamTS":"STAYNER TS","GeocodedPlace":"Mair Mills, Collingwood, Simcoe County, Central Ontario, Ontario, L9Y 0W1, Canada"}},{"type":"Feature","geometry":{"type":"Point","coordinates":[-79.221701,43.809196]},"properties":{"StationName":"MALVERN TS","CapacityMW":32.0,"VoltageKV":27.6,"UpstreamTS":null,"GeocodedPlace":"Malvern, Scarborough\u2014Rouge Park, Scarborough, Toronto, Golden Horseshoe, Ontario, M1B 0C2, Canada"}},{"type":"Feature","geometry":{"type":"Point","coordinates":[-80.039247,44.169796]},"properties":{"StationName":"MANSFIELD DS","CapacityMW":3.5,"VoltageKV":8.32,"UpstreamTS":"STAYNER TS","GeocodedPlace":"Mansfield, Mulmur, Dufferin County, Central Ontario, Ontario, L0N 1M0, Canada"}},{"type":"Feature","geometry":{"type":"Point","coordinates":[-79.753817,43.582713]},"properties":{"StationName":"MEADOWVALE TS","CapacityMW":129.2,"VoltageKV":44.0,"UpstreamTS":null,"GeocodedPlace":"Meadowvale, Mississauga, Peel Region, Golden Horseshoe, Ontario, Canada"}},{"type":"Feature","geometry":{"type":"Point","coordinates":[-80.591653,44.60693]},"properties":{"StationName":"MEAFORD DS #2","CapacityMW":2.3,"VoltageKV":8.32,"UpstreamTS":"MEAFORD TS","GeocodedPlace":"Meaford, Grey County, Southwestern Ontario, Ontario, Canada"}},{"type":"Feature","geometry":{"type":"Point","coordinates":[-80.591653,44.60693]},"properties":{"StationName":"MEAFORD TS","CapacityMW":34.3,"VoltageKV":44.0,"UpstreamTS":null,"GeocodedPlace":"Meaford, Grey County, Southwestern Ontario, Ontario, Canada"}},{"type":"Feature","geometry":{"type":"Point","coordinates":[-79.607162,44.708677]},"properties":{"StationName":"MEDONTE DS","CapacityMW":5.0,"VoltageKV":27.6,"UpstreamTS":"MIDHURST TS - DESN1","GeocodedPlace":"Medonte, Severn, Simcoe County, Central Ontario, Ontario, L0K 1E0, Canada"}},{"type":"Feature","geometry":{"type":"Point","coordinates":[-79.733624,44.447586]},"properties":{"StationName":"MIDHURST DS","CapacityMW":5.0,"VoltageKV":8.32,"UpstreamTS":"MIDHURST TS - DESN1","GeocodedPlace":"Midhurst, Springwater, Simcoe County, Central Ontario, Ontario, L9X 0P1, Canada"}},{"type":"Feature","geometry":{"type":"Point","coordinates":[-79.733624,44.447586]},"properties":{"StationName":"MIDHURST TS DESN1","CapacityMW":119.4,"VoltageKV":44.0,"UpstreamTS":null,"GeocodedPlace":"Midhurst, Springwater, Simcoe County, Central Ontario, Ontario, L9X 0P1, Canada"}},{"type":"Feature","geometry":{"type":"Point","coordinates":[-79.733624,44.447586]},"properties":{"StationName":"MIDHURST TS DESN2","CapacityMW":71.5,"VoltageKV":44.0,"UpstreamTS":null,"GeocodedPlace":"Midhurst, Springwater, Simcoe County, Central Ontario, Ontario, L9X 0P1, Canada"}},{"type":"Feature","geometry":{"type":"Point","coordinates":[-78.447598,44.151144]},"properties":{"StationName":"MILLBROOK DS","CapacityMW":4.0,"VoltageKV":8.32,"UpstreamTS":"DOBBIN TS","GeocodedPlace":"Millbrook, Cavan-Monaghan, Peterborough County, Central Ontario, Ontario, L0A 1G0, Canada"}},{"type":"Feature","geometry":{"type":"Point","coordinates":[-79.958496,43.336416]},"properties":{"StationName":"MILLGROVE DS","CapacityMW":3.1,"VoltageKV":8.32,"UpstreamTS":"DUNDAS TS","GeocodedPlace":"Millgrove, Hamilton, Golden Horseshoe, Ontario, L0R 1V0, Canada"}},{"type":"Feature","geometry":{"type":"Point","coordinates":[-78.72493,44.925444]},"properties":{"StationName":"MINDEN DS","CapacityMW":3.8,"VoltageKV":12.5,"UpstreamTS":"MINDEN TS","GeocodedPlace":"Minden, Minden Hills, Haliburton County, Central Ontario, Ontario, K0M 2K0, Canada"}},{"type":"Feature","geometry":{"type":"Point","coordinates":[-78.72493,44.925444]},"properties":{"StationName":"MINDEN TS","CapacityMW":66.6,"VoltageKV":44.0,"UpstreamTS":null,"GeocodedPlace":"Minden, Minden Hills, Haliburton County, Central Ontario, Ontario, K0M 2K0, Canada"}},{"type":"Feature","geometry":{"type":"Point","coordinates":[-79.889929,43.240099]},"properties":{"StationName":"MOHAWK TS","CapacityMW":20.6,"VoltageKV":13.8,"UpstreamTS":null,"GeocodedPlace":"Mohawk, Hamilton, Golden Horseshoe, Ontario, Canada"}},{"type":"Feature","geometry":{"type":"Point","coordinates":[-79.969834,43.946306]},"properties":{"StationName":"MONO MILLS DS","CapacityMW":4.0,"VoltageKV":12.5,"UpstreamTS":"ORANGEVILLE TS DESN2","GeocodedPlace":"Mono Mills, Caledon, Peel Region, Golden Horseshoe, Ontario, L7K 0A1, Canada"}},{"type":"Feature","geometry":{"type":"Point","coordinates":[-79.676571,44.65023]},"properties":{"StationName":"MOONSTONE DS","CapacityMW":3.4,"VoltageKV":8.32,"UpstreamTS":"WAUBAUSHENE TS","GeocodedPlace":"Moonstone, Oro-Medonte, Simcoe County, Central Ontario, Ontario, L0K 1E0, Canada"}},{"type":"Feature","geometry":{"type":"Point","coordinates":[-79.308531,44.136865]},"properties":{"StationName":"MOUNT ALBERT DS","CapacityMW":5.0,"VoltageKV":8.32,"UpstreamTS":"BROWN HILL TS","GeocodedPlace":"Mount Albert, East Gwillimbury, York Region, Golden Horseshoe, Ontario, L0G 1M0, Canada"}},{"type":"Feature","geometry":{"type":"Point","coordinates":[-80.733824,43.980698]},"properties":{"StationName":"MOUNT FOREST DS #2","CapacityMW":3.5,"VoltageKV":8.32,"UpstreamTS":"HANOVER TS","GeocodedPlace":"Mount Forest, Wellington North, Wellington County, Southwestern Ontario, Ontario, N0G 2L3, Canada"}},{"type":"Feature","geometry":{"type":"Point","coordinates":[-79.91618,43.156141]},"properties":{"StationName":"MOUNT HOPE DS","CapacityMW":3.3,"VoltageKV":8.32,"UpstreamTS":"NEBO TS DESN1","GeocodedPlace":"Mount Hope, Hamilton, Golden Horseshoe, Ontario, L0R 1W0, Canada"}},{"type":"Feature","geometry":{"type":"Point","coordinates":[-79.835234,43.375899]},"properties":{"StationName":"NELSON TS DESN1","CapacityMW":59.8,"VoltageKV":27.6,"UpstreamTS":null,"GeocodedPlace":"Nelson, Burlington, Halton Region, Golden Horseshoe, Ontario, L7P 4M7, Canada"}},{"type":"Feature","geometry":{"type":"Point","coordinates":[-78.798393,44.153082]},"properties":{"StationName":"NESTLETON DS","CapacityMW":3.3,"VoltageKV":8.32,"UpstreamTS":"ENFIELD TS DESN1","GeocodedPlace":"Nestleton, Nestleton Station, Scugog, Durham Region, Golden Horseshoe, Ontario, L0B 1L0, Canada"}},{"type":"Feature","geometry":{"type":"Point","coordinates":[-80.87778,43.589745]},"properties":{"StationName":"NEWTON TS","CapacityMW":50.2,"VoltageKV":13.8,"UpstreamTS":null,"GeocodedPlace":"Newton, Perth East, Perth County, Southwestern Ontario, Ontario, N0K 1R0, Canada"}},{"type":"Feature","geometry":{"type":"Point","coordinates":[-78.492521,43.939002]},"properties":{"StationName":"NEWTONVILLE DS","CapacityMW":3.2,"VoltageKV":8.32,"UpstreamTS":"PORT HOPE TS DESN1","GeocodedPlace":"Newtonville, Clarington, Durham Region, Golden Horseshoe, Ontario, L0A 1J0, Canada"}},{"type":"Feature","geometry":{"type":"Point","coordinates":[-79.652722,43.902213]},"properties":{"StationName":"NOBLETON DS 27.6 kV","CapacityMW":7.7,"VoltageKV":27.6,"UpstreamTS":"KLEINBURG TS 44 KV","GeocodedPlace":"Nobleton, King, York Region, Golden Horseshoe, Ontario, L0G 1N0, Canada"}},{"type":"Feature","geometry":{"type":"Point","coordinates":[-79.652722,43.902213]},"properties":{"StationName":"NOBLETON DS 8.32 kV","CapacityMW":3.3,"VoltageKV":8.32,"UpstreamTS":"KLEINBURG TS 44 KV","GeocodedPlace":"Nobleton, King, York Region, Golden Horseshoe, Ontario, L0G 1N0, Canada"}},{"type":"Feature","geometry":{"type":"Point","coordinates":[-80.453836,42.797153]},"properties":{"StationName":"NORFOLK TS","CapacityMW":55.9,"VoltageKV":27.6,"UpstreamTS":null,"GeocodedPlace":"Norfolk County, Southwestern Ontario, Ontario, Canada"}},{"type":"Feature","geometry":{"type":"Point","coordinates":[-77.979805,44.381809]},"properties":{"StationName":"NORWOOD DS","CapacityMW":3.7,"VoltageKV":8.32,"UpstreamTS":"OTONABEE TS DESN2","GeocodedPlace":"Norwood, Asphodel-Norwood, Peterborough County, Central Ontario, Ontario, K0L 2V0, Canada"}},{"type":"Feature","geometry":{"type":"Point","coordinates":[-79.666672,43.447436]},"properties":{"StationName":"OAKVILLE TS","CapacityMW":102.5,"VoltageKV":27.6,"UpstreamTS":null,"GeocodedPlace":"Oakville, Halton Region, Golden Horseshoe, Ontario, Canada"}},{"type":"Feature","geometry":{"type":"Point","coordinates":[-78.88007,44.333016]},"properties":{"StationName":"OAKWOOD DS","CapacityMW":3.7,"VoltageKV":8.32,"UpstreamTS":"LINDSAY TS","GeocodedPlace":"Oakwood, Kawartha Lakes, Central Ontario, Ontario, K0M 2M0, Canada"}},{"type":"Feature","geometry":{"type":"Point","coordinates":[-78.5585,44.299265]},"properties":{"StationName":"OMEMEE DS","CapacityMW":3.5,"VoltageKV":8.32,"UpstreamTS":"DOBBIN TS","GeocodedPlace":"Omemee, Kawartha Lakes, Central Ontario, Ontario, K0L 2W0, Canada"}},{"type":"Feature","geometry":{"type":"Point","coordinates":[-80.097375,43.919317]},"properties":{"StationName":"ORANGEVILLE DS #3","CapacityMW":3.8,"VoltageKV":12.5,"UpstreamTS":"ORANGEVILLE TS DESN2","GeocodedPlace":"Orangeville, Dufferin County, Central Ontario, Ontario, Canada"}},{"type":"Feature","geometry":{"type":"Point","coordinates":[-80.097375,43.919317]},"properties":{"StationName":"ORANGEVILLE TS DESN1","CapacityMW":25.2,"VoltageKV":27.6,"UpstreamTS":null,"GeocodedPlace":"Orangeville, Dufferin County, Central Ontario, Ontario, Canada"}},{"type":"Feature","geometry":{"type":"Point","coordinates":[-80.097375,43.919317]},"properties":{"StationName":"ORANGEVILLE TS DESN2","CapacityMW":74.1,"VoltageKV":44.0,"UpstreamTS":null,"GeocodedPlace":"Orangeville, Dufferin County, Central Ontario, Ontario, Canada"}},{"type":"Feature","geometry":{"type":"Point","coordinates":[-79.416926,44.606614]},"properties":{"StationName":"ORILLIA TS","CapacityMW":100.4,"VoltageKV":44.0,"UpstreamTS":null,"GeocodedPlace":"Orillia, Central Ontario, Ontario, Canada"}},{"type":"Feature","geometry":{"type":"Point","coordinates":[-79.639242,44.522513]},"properties":{"StationName":"ORO DS","CapacityMW":3.9,"VoltageKV":8.32,"UpstreamTS":"MIDHURST TS - DESN1","GeocodedPlace":"Barrie\u2014Springwater\u2014Oro-Medonte, Simcoe County, Central Ontario, Ontario, Canada"}},{"type":"Feature","geometry":{"type":"Point","coordinates":[-78.616447,43.975028]},"properties":{"StationName":"ORONO DS","CapacityMW":3.3,"VoltageKV":8.32,"UpstreamTS":"ENFIELD TS DESN1","GeocodedPlace":"Orono, Clarington, Durham Region, Golden Horseshoe, Ontario, L0B 1M0, Canada"}},{"type":"Feature","geometry":{"type":"Point","coordinates":[-80.133238,43.69835]},"properties":{"StationName":"OSPRINGE DS","CapacityMW":3.0,"VoltageKV":8.32,"UpstreamTS":"FERGUS TS","GeocodedPlace":"Ospringe, Erin, Wellington County, Southwestern Ontario, Ontario, L7J 2L9, Canada"}},{"type":"Feature","geometry":{"type":"Point","coordinates":[-80.759821,42.90417]},"properties":{"StationName":"OSTRANDER DS","CapacityMW":4.9,"VoltageKV":8.32,"UpstreamTS":"TILLSONBURG TS","GeocodedPlace":"Ostrander, South-West Oxford, Oxford County, Southwestern Ontario, Ontario, N4G 4H1, Canada"}},{"type":"Feature","geometry":{"type":"Point","coordinates":[-78.215107,44.243346]},"properties":{"StationName":"OTONABEE DS","CapacityMW":2.3,"VoltageKV":8.32,"UpstreamTS":"OTONABEE TS DESN2","GeocodedPlace":"Otonabee\u2013South Monaghan, Peterborough County, Central Ontario, Ontario, Canada"}},{"type":"Feature","geometry":{"type":"Point","coordinates":[-78.215107,44.243346]},"properties":{"StationName":"OTONABEE TS DESN1","CapacityMW":39.3,"VoltageKV":27.6,"UpstreamTS":null,"GeocodedPlace":"Otonabee\u2013South Monaghan, Peterborough County, Central Ontario, Ontario, Canada"}},{"type":"Feature","geometry":{"type":"Point","coordinates":[-78.215107,44.243346]},"properties":{"StationName":"OTONABEE TS DESN2","CapacityMW":37.2,"VoltageKV":44.0,"UpstreamTS":null,"GeocodedPlace":"Otonabee\u2013South Monaghan, Peterborough County, Central Ontario, Ontario, Canada"}},{"type":"Feature","geometry":{"type":"Point","coordinates":[-80.603418,42.926495]},"properties":{"StationName":"OTTERVILLE DS","CapacityMW":3.3,"VoltageKV":8.32,"UpstreamTS":"TILLSONBURG TS","GeocodedPlace":"Otterville, Norwich, Oxford County, Southwestern Ontario, Ontario, N0J 1R0, Canada"}},{"type":"Feature","geometry":{"type":"Point","coordinates":[-80.254808,43.696922]},"properties":{"StationName":"OUSTIC DS","CapacityMW":2.9,"VoltageKV":8.32,"UpstreamTS":"FERGUS TS","GeocodedPlace":"Oustic, Guelph/Eramosa, Wellington County, Southwestern Ontario, Ontario, Canada"}},{"type":"Feature","geometry":{"type":"Point","coordinates":[-79.776444,43.435688]},"properties":{"StationName":"PALERMO TS","CapacityMW":71.0,"VoltageKV":27.6,"UpstreamTS":null,"GeocodedPlace":"Palermo, Oakville, Halton Region, Golden Horseshoe, Ontario, L6M 4J2, Canada"}},{"type":"Feature","geometry":{"type":"Point","coordinates":[-80.849576,43.834111]},"properties":{"StationName":"PALMERSTON TS","CapacityMW":55.6,"VoltageKV":44.0,"UpstreamTS":null,"GeocodedPlace":"Palmerston, Minto, Wellington County, Southwestern Ontario, Ontario, N0G 2P0, Canada"}},{"type":"Feature","geometry":{"type":"Point","coordinates":[-77.97283,44.9863]},"properties":{"StationName":"PAUDASH DS","CapacityMW":4.0,"VoltageKV":12.5,"UpstreamTS":"HAVELOCK TS","GeocodedPlace":"Paudash, Faraday, Hastings County, Central Ontario, Ontario, K0L 1M0, Canada"}},{"type":"Feature","geometry":{"type":"Point","coordinates":[-79.202902,44.314574]},"properties":{"StationName":"PEFFERLAW DS","CapacityMW":1.7,"VoltageKV":8.32,"UpstreamTS":"BEAVERTON TS","GeocodedPlace":"Pefferlaw, Georgina, York Region, Golden Horseshoe, Ontario, L0E 1N0, Canada"}},{"type":"Feature","geometry":{"type":"Point","coordinates":[-80.067543,43.280351]},"properties":{"StationName":"PETERS CORNERS DS","CapacityMW":2.7,"VoltageKV":8.32,"UpstreamTS":"BROWN HILL TS","GeocodedPlace":"Peters Corners, Hamilton, Golden Horseshoe, Ontario, L9H 5E1, Canada"}},{"type":"Feature","geometry":{"type":"Point","coordinates":[-80.621576,43.303258]},"properties":{"StationName":"PLATTSVILLE DS","CapacityMW":2.5,"VoltageKV":8.32,"UpstreamTS":"WOLVERTON DS","GeocodedPlace":"Plattsville, Blandford-Blenheim, Oxford County, Southwestern Ontario, Ontario, N0J 1S0, Canada"}},{"type":"Feature","geometry":{"type":"Point","coordinates":[-78.704612,44.454478]},"properties":{"StationName":"PLEASANT POINT DS","CapacityMW":4.1,"VoltageKV":12.5,"UpstreamTS":"LINDSAY TS","GeocodedPlace":"Pleasant Point, Kawartha Lakes, Central Ontario, Ontario, K0M 1L0, Canada"}},{"type":"Feature","geometry":{"type":"Point","coordinates":[-79.333714,43.787048]},"properties":{"StationName":"PLEASANT TS DESN1","CapacityMW":100.9,"VoltageKV":44.0,"UpstreamTS":null,"GeocodedPlace":"Pleasant View, Don Valley North, North York, Toronto, Golden Horseshoe, Ontario, Canada"}},{"type":"Feature","geometry":{"type":"Point","coordinates":[-79.333714,43.787048]},"properties":{"StationName":"PLEASANT TS DESN2","CapacityMW":88.9,"VoltageKV":27.6,"UpstreamTS":null,"GeocodedPlace":"Pleasant View, Don Valley North, North York, Toronto, Golden Horseshoe, Ontario, Canada"}},{"type":"Feature","geometry":{"type":"Point","coordinates":[-79.333714,43.787048]},"properties":{"StationName":"PLEASANT TS DESN3","CapacityMW":56.3,"VoltageKV":27.6,"UpstreamTS":null,"GeocodedPlace":"Pleasant View, Don Valley North, North York, Toronto, Golden Horseshoe, Ontario, Canada"}},{"type":"Feature","geometry":{"type":"Point","coordinates":[-79.404916,44.051874]},"properties":{"StationName":"PLEASANTVILLE DS","CapacityMW":3.2,"VoltageKV":8.32,"UpstreamTS":"HOLLAND TS","GeocodedPlace":"Pleasantville, Whitchurch-Stouffville, York Region, Golden Horseshoe, Ontario, L3Y 7B4, Canada"}},{"type":"Feature","geometry":{"type":"Point","coordinates":[-80.366506,43.631774]},"properties":{"StationName":"PONSONBY DS","CapacityMW":3.5,"VoltageKV":8.32,"UpstreamTS":"FERGUS TS","GeocodedPlace":"Ponsonby, Centre Wellington, Wellington County, Southwestern Ontario, Ontario, N0B 1B0, Canada"}},{"type":"Feature","geometry":{"type":"Point","coordinates":[-79.25139,42.886239]},"properties":{"StationName":"PORT COLBORNE TS","CapacityMW":47.0,"VoltageKV":27.6,"UpstreamTS":null,"GeocodedPlace":"Port Colborne, Niagara Region, Golden Horseshoe, Ontario, Canada"}},{"type":"Feature","geometry":{"type":"Point","coordinates":[-78.29397,43.951575]},"properties":{"StationName":"PORT HOPE TS DESN1","CapacityMW":57.0,"VoltageKV":44.0,"UpstreamTS":null,"GeocodedPlace":"Port Hope, Northumberland County, Central Ontario, Ontario, Canada"}},{"type":"Feature","geometry":{"type":"Point","coordinates":[-78.29397,43.951575]},"properties":{"StationName":"PORT HOPE TS DESN2","CapacityMW":67.2,"VoltageKV":44.0,"UpstreamTS":null,"GeocodedPlace":"Port Hope, Northumberland County, Central Ontario, Ontario, Canada"}},{"type":"Feature","geometry":{"type":"Point","coordinates":[-78.942508,44.105415]},"properties":{"StationName":"PORT PERRY DS","CapacityMW":6.3,"VoltageKV":8.32,"UpstreamTS":"WILSON TS DESN2","GeocodedPlace":"Port Perry, Scugog, Durham Region, Golden Horseshoe, Ontario, L9L 1B8, Canada"}},{"type":"Feature","geometry":{"type":"Point","coordinates":[-80.35551,43.394008]},"properties":{"StationName":"PRESTON TS","CapacityMW":24.6,"VoltageKV":27.6,"UpstreamTS":null,"GeocodedPlace":"Preston, Cambridge, Region of Waterloo, Southwestern Ontario, Ontario, N3H 3P1, Canada"}},{"type":"Feature","geometry":{"type":"Point","coordinates":[-80.526733,43.17011]},"properties":{"StationName":"PRINCETON DS","CapacityMW":1.4,"VoltageKV":8.0,"UpstreamTS":"BRANT TS","GeocodedPlace":"Princeton, Blandford-Blenheim, Oxford County, Southwestern Ontario, Ontario, N0J 1V0, Canada"}},{"type":"Feature","geometry":{"type":"Point","coordinates":[-80.113735,43.477178]},"properties":{"StationName":"PUSLINCH DS","CapacityMW":19.8,"VoltageKV":27.6,"UpstreamTS":null,"GeocodedPlace":"Puslinch, Wellington County, Southwestern Ontario, Ontario, Canada"}},{"type":"Feature","geometry":{"type":"Point","coordinates":[-79.350209,44.648948]},"properties":{"StationName":"RAMA DS","CapacityMW":4.9,"VoltageKV":8.32,"UpstreamTS":"ORILLIA TS","GeocodedPlace":"Rama, Simcoe County, Central Ontario, Ontario, L3V 6H6, Canada"}},{"type":"Feature","geometry":{"type":"Point","coordinates":[-79.565513,43.721362]},"properties":{"StationName":"REXDALE TS","CapacityMW":91.7,"VoltageKV":27.6,"UpstreamTS":null,"GeocodedPlace":"Rexdale-Kipling, Etobicoke North, Etobicoke, Toronto, Golden Horseshoe, Ontario, Canada"}},{"type":"Feature","geometry":{"type":"Point","coordinates":[-79.542877,43.68863]},"properties":{"StationName":"RICHVIEW TS DESN1","CapacityMW":79.9,"VoltageKV":27.6,"UpstreamTS":null,"GeocodedPlace":"Richview, Etobicoke Centre, Etobicoke, Toronto, Golden Horseshoe, Ontario, M9P 3K2, Canada"}},{"type":"Feature","geometry":{"type":"Point","coordinates":[-79.542877,43.68863]},"properties":{"StationName":"RICHVIEW TS DESN2","CapacityMW":80.2,"VoltageKV":27.6,"UpstreamTS":null,"GeocodedPlace":"Richview, Etobicoke Centre, Etobicoke, Toronto, Golden Horseshoe, Ontario, M9P 3K2, Canada"}},{"type":"Feature","geometry":{"type":"Point","coordinates":[-79.542877,43.68863]},"properties":{"StationName":"RICHVIEW TS DESN3","CapacityMW":64.2,"VoltageKV":27.6,"UpstreamTS":null,"GeocodedPlace":"Richview, Etobicoke Centre, Etobicoke, Toronto, Golden Horseshoe, Ontario, M9P 3K2, Canada"}},{"type":"Feature","geometry":{"type":"Point","coordinates":[-79.280866,43.963805]},"properties":{"StationName":"RINGWOOD DS - 27.6 kV","CapacityMW":10.4,"VoltageKV":27.6,"UpstreamTS":"ARMITAGE TS DESN2","GeocodedPlace":"Ringwood, Stouffville, Whitchurch-Stouffville, York Region, Golden Horseshoe, Ontario, L4A 0W7, Canada"}},{"type":"Feature","geometry":{"type":"Point","coordinates":[-79.280866,43.963805]},"properties":{"StationName":"RINGWOOD DS - 8.32 kV","CapacityMW":2.8,"VoltageKV":8.32,"UpstreamTS":"ARMITAGE TS DESN2","GeocodedPlace":"Ringwood, Stouffville, Whitchurch-Stouffville, York Region, Golden Horseshoe, Ontario, L4A 0W7, Canada"}},{"type":"Feature","geometry":{"type":"Point","coordinates":[-79.350853,43.670559]},"properties":{"StationName":"RIVERDALE TS","CapacityMW":24.6,"VoltageKV":12.5,"UpstreamTS":null,"GeocodedPlace":"Riverdale, Toronto\u2014Danforth, Toronto, Golden Horseshoe, Ontario, M4K 1E5, Canada"}},{"type":"Feature","geometry":{"type":"Point","coordinates":[-80.664113,42.890807]},"properties":{"StationName":"ROCK MILLS DS","CapacityMW":4.2,"VoltageKV":8.32,"UpstreamTS":"HANOVER TS","GeocodedPlace":"Rock's Mills, Norwich, Oxford County, Southwestern Ontario, Ontario, N0J 1X0, Canada"}},{"type":"Feature","geometry":{"type":"Point","coordinates":[-80.144209,43.618908]},"properties":{"StationName":"ROCKWOOD DS","CapacityMW":3.8,"VoltageKV":8.32,"UpstreamTS":"FERGUS TS","GeocodedPlace":"Rockwood, Guelph/Eramosa, Wellington County, Southwestern Ontario, Ontario, N0B 2K0, Canada"}},{"type":"Feature","geometry":{"type":"Point","coordinates":[-79.805256,43.224662]},"properties":{"StationName":"ROSEDALE DS","CapacityMW":2.9,"VoltageKV":12.5,"UpstreamTS":"BEAVERTON TS","GeocodedPlace":"Rosedale, Hamilton, Golden Horseshoe, Ontario, L8K 4R2, Canada"}},{"type":"Feature","geometry":{"type":"Point","coordinates":[-78.057303,44.193439]},"properties":{"StationName":"ROSENEATH DS","CapacityMW":3.3,"VoltageKV":8.32,"UpstreamTS":"PORT HOPE TS DESN1","GeocodedPlace":"Roseneath, Alnwick/Haldimand, Northumberland County, Central Ontario, Ontario, K0K 2X0, Canada"}},{"type":"Feature","geometry":{"type":"Point","coordinates":[-80.475818,43.34143]},"properties":{"StationName":"ROSEVILLE DS","CapacityMW":3.7,"VoltageKV":8.32,"UpstreamTS":"ARMITAGE TS DESN1","GeocodedPlace":"Roseville, North Dumfries, Region of Waterloo, Southwestern Ontario, Ontario, N2R 1R8, Canada"}},{"type":"Feature","geometry":{"type":"Point","coordinates":[-79.484289,43.66297]},"properties":{"StationName":"RUNNYMEDE TS DESN1","CapacityMW":80.3,"VoltageKV":27.6,"UpstreamTS":null,"GeocodedPlace":"Runnymede-Bloor West Village, York, Parkdale\u2014High Park, Toronto, Golden Horseshoe, Ontario, Canada"}},{"type":"Feature","geometry":{"type":"Point","coordinates":[-79.484289,43.66297]},"properties":{"StationName":"RUNNYMEDE TS DESN2","CapacityMW":39.8,"VoltageKV":27.6,"UpstreamTS":null,"GeocodedPlace":"Runnymede-Bloor West Village, York, Parkdale\u2014High Park, Toronto, Golden Horseshoe, Ontario, Canada"}},{"type":"Feature","geometry":{"type":"Point","coordinates":[-79.682541,44.001387]},"properties":{"StationName":"SCHOMBERG DS - 27.6 kV","CapacityMW":11.0,"VoltageKV":27.6,"UpstreamTS":"KLEINBURG TS 44 KV","GeocodedPlace":"Schomberg, King, York Region, Golden Horseshoe, Ontario, L0G 1T0, Canada"}},{"type":"Feature","geometry":{"type":"Point","coordinates":[-79.682541,44.001387]},"properties":{"StationName":"SCHOMBERG DS - 8.32 kV","CapacityMW":5.2,"VoltageKV":8.32,"UpstreamTS":"KLEINBURG TS 44 KV","GeocodedPlace":"Schomberg, King, York Region, Golden Horseshoe, Ontario, L0G 1T0, Canada"}},{"type":"Feature","geometry":{"type":"Point","coordinates":[-80.375767,43.025278]},"properties":{"StationName":"SCOTLAND DS","CapacityMW":3.4,"VoltageKV":8.32,"UpstreamTS":"BRANT TS","GeocodedPlace":"Scotland, Brant County, Southwestern Ontario, Ontario, N0E 1R0, Canada"}},{"type":"Feature","geometry":{"type":"Point","coordinates":[-78.885804,44.186464]},"properties":{"StationName":"SCUGOG ISLAND DS","CapacityMW":3.5,"VoltageKV":8.32,"UpstreamTS":"ENFIELD TS DESN1","GeocodedPlace":"Mississaugas of Scugog Island, Scugog, Durham Region, Golden Horseshoe, Ontario, L9L 1B6, Canada"}},{"type":"Feature","geometry":{"type":"Point","coordinates":[-78.945244,44.200254]},"properties":{"StationName":"SEAGRAVE DS","CapacityMW":3.6,"VoltageKV":8.32,"UpstreamTS":"BEAVERTON TS","GeocodedPlace":"Seagrave, Scugog, Durham Region, Golden Horseshoe, Ontario, L9L 1B6, Canada"}},{"type":"Feature","geometry":{"type":"Point","coordinates":[-79.163121,44.696494]},"properties":{"StationName":"SEBRIGHT DS","CapacityMW":2.3,"VoltageKV":8.32,"UpstreamTS":"BEAVERTON TS","GeocodedPlace":"Sebright, Ramara Township, Simcoe County, Central Ontario, Ontario, L0K 1W0, Canada"}},{"type":"Feature","geometry":{"type":"Point","coordinates":[-79.431988,44.102254]},"properties":{"StationName":"SHARON DS","CapacityMW":3.9,"VoltageKV":8.32,"UpstreamTS":"BROWN HILL TS","GeocodedPlace":"Sharon, East Gwillimbury, York Region, Golden Horseshoe, Ontario, L0G 1V0, Canada"}},{"type":"Feature","geometry":{"type":"Point","coordinates":[-80.206625,43.32501]},"properties":{"StationName":"SHEFFIELD DS","CapacityMW":3.1,"VoltageKV":8.32,"UpstreamTS":"GALT TS","GeocodedPlace":"Sheffield, Hamilton, Golden Horseshoe, Ontario, L0R 1Z0, Canada"}},{"type":"Feature","geometry":{"type":"Point","coordinates":[-79.931039,43.917362]},"properties":{"StationName":"SLESWICK DS","CapacityMW":3.9,"VoltageKV":12.5,"UpstreamTS":"ORANGEVILLE TS DESN2","GeocodedPlace":"Sleswick, Caledon, Peel Region, Golden Horseshoe, Ontario, L7C 2V5, Canada"}},{"type":"Feature","geometry":{"type":"Point","coordinates":[-79.824995,43.733752]},"properties":{"StationName":"SNELGROVE DS","CapacityMW":10.3,"VoltageKV":8.32,"UpstreamTS":"PLEASANT TS DESN1","GeocodedPlace":"Snelgrove, Brampton, Peel Region, Golden Horseshoe, Ontario, L7A 1E6, Canada"}},{"type":"Feature","geometry":{"type":"Point","coordinates":[-78.783696,43.973694]},"properties":{"StationName":"SOLINA DS","CapacityMW":5.0,"VoltageKV":27.6,"UpstreamTS":"WILSON TS DESN2","GeocodedPlace":"Solina, Clarington, Durham Region, Golden Horseshoe, Ontario, L0B 1J0, Canada"}},{"type":"Feature","geometry":{"type":"Point","coordinates":[-80.123345,42.971719]},"properties":{"StationName":"SPRINGVALE DS","CapacityMW":3.7,"VoltageKV":8.32,"UpstreamTS":"FOREST JURA DS","GeocodedPlace":"Springvale, Haldimand County, Southwestern Ontario, Ontario, Canada"}},{"type":"Feature","geometry":{"type":"Point","coordinates":[-78.403134,44.241685]},"properties":{"StationName":"SPRINGVILLE DS","CapacityMW":3.7,"VoltageKV":8.32,"UpstreamTS":"DOBBIN TS","GeocodedPlace":"Springville, Cavan-Monaghan, Peterborough County, Central Ontario, Ontario, K9J 7B1, Canada"}},{"type":"Feature","geometry":{"type":"Point","coordinates":[-80.250859,43.2453]},"properties":{"StationName":"ST GEORGE DS","CapacityMW":5.0,"VoltageKV":8.32,"UpstreamTS":"BRANT TS","GeocodedPlace":"St George, Brant County, Southwestern Ontario, Ontario, N0E 1N0, Canada"}},{"type":"Feature","geometry":{"type":"Point","coordinates":[-79.371455,43.649411]},"properties":{"StationName":"ST LAWRENCE TS","CapacityMW":72.7,"VoltageKV":44.0,"UpstreamTS":null,"GeocodedPlace":"St. Lawrence, Downtown, Toronto, Golden Horseshoe, Ontario, M5E 1C2, Canada"}},{"type":"Feature","geometry":{"type":"Point","coordinates":[-80.41513,42.667321]},"properties":{"StationName":"ST WILLIAMS DS","CapacityMW":4.2,"VoltageKV":8.32,"UpstreamTS":"NORFOLK TS","GeocodedPlace":"St. Williams, Norfolk County, Southwestern Ontario, Ontario, N0E 1P0, Canada"}},{"type":"Feature","geometry":{"type":"Point","coordinates":[-80.090445,44.419464]},"properties":{"StationName":"STAYNER TS","CapacityMW":89.7,"VoltageKV":44.0,"UpstreamTS":null,"GeocodedPlace":"Stayner, Clearview, Simcoe County, Central Ontario, Ontario, L0M 1S0, Canada"}},{"type":"Feature","geometry":{"type":"Point","coordinates":[-80.687805,43.733911]},"properties":{"StationName":"STIRTON TS","CapacityMW":20.8,"VoltageKV":13.8,"UpstreamTS":null,"GeocodedPlace":"Stirton, Mapleton, Wellington County, Southwestern Ontario, Ontario, N0G 1P0, Canada"}},{"type":"Feature","geometry":{"type":"Point","coordinates":[-80.777804,42.748716]},"properties":{"StationName":"STRAFFORDVILLE DS","CapacityMW":2.9,"VoltageKV":8.32,"UpstreamTS":"TILLSONBURG TS","GeocodedPlace":"Straffordville, Bayham, Elgin County, Southwestern Ontario, Ontario, N0J 1Y0, Canada"}},{"type":"Feature","geometry":{"type":"Point","coordinates":[-79.0662,44.263396]},"properties":{"StationName":"SUNDERLAND DS","CapacityMW":4.0,"VoltageKV":8.32,"UpstreamTS":"BEAVERTON TS","GeocodedPlace":"Sunderland, Brock, Durham Region, Golden Horseshoe, Ontario, L0C 1H0, Canada"}},{"type":"Feature","geometry":{"type":"Point","coordinates":[-80.012452,44.432723]},"properties":{"StationName":"SUNNIDALE CORNERS DS","CapacityMW":3.4,"VoltageKV":8.32,"UpstreamTS":"STAYNER TS","GeocodedPlace":"Sunnidale Corners, Clearview, Simcoe County, Central Ontario, Ontario, L9Z 1R2, Canada"}},{"type":"Feature","geometry":{"type":"Point","coordinates":[-79.365311,44.310301]},"properties":{"StationName":"SUTTON DS #2","CapacityMW":3.3,"VoltageKV":8.32,"UpstreamTS":"BROWN HILL TS","GeocodedPlace":"Sutton, Georgina, York Region, Golden Horseshoe, Ontario, L0E 1L0, Canada"}},{"type":"Feature","geometry":{"type":"Point","coordinates":[-79.119332,44.506848]},"properties":{"StationName":"TALBOT TS DESN1","CapacityMW":61.3,"VoltageKV":27.6,"UpstreamTS":null,"GeocodedPlace":"Talbot, Brock, Durham Region, Golden Horseshoe, Ontario, K0M 1B0, Canada"}},{"type":"Feature","geometry":{"type":"Point","coordinates":[-79.119332,44.506848]},"properties":{"StationName":"TALBOT TS DESN2","CapacityMW":67.2,"VoltageKV":27.6,"UpstreamTS":null,"GeocodedPlace":"Talbot, Brock, Durham Region, Golden Horseshoe, Ontario, K0M 1B0, Canada"}},{"type":"Feature","geometry":{"type":"Point","coordinates":[-78.849675,43.948895]},"properties":{"StationName":"TAUNTON DS","CapacityMW":5.0,"VoltageKV":27.6,"UpstreamTS":"WILSON TS DESN2","GeocodedPlace":"Taunton, The Fields of Conlin, Oshawa, Durham Region, Golden Horseshoe, Ontario, Canada"}},{"type":"Feature","geometry":{"type":"Point","coordinates":[-79.224246,44.444434]},"properties":{"StationName":"THORAH DS","CapacityMW":3.4,"VoltageKV":8.32,"UpstreamTS":"BEAVERTON TS","GeocodedPlace":"Thorah Island, Brock, Durham Region, Golden Horseshoe, Ontario, Canada"}},{"type":"Feature","geometry":{"type":"Point","coordinates":[-79.722148,44.2709]},"properties":{"StationName":"THORNTON DS","CapacityMW":3.3,"VoltageKV":8.32,"UpstreamTS":"ALLISTON TS","GeocodedPlace":"Thornton, Essa, Simcoe County, Central Ontario, Ontario, L0L 2N0, Canada"}},{"type":"Feature","geometry":{"type":"Point","coordinates":[-79.722148,44.2709]},"properties":{"StationName":"THORNTON TS","CapacityMW":98.2,"VoltageKV":44.0,"UpstreamTS":null,"GeocodedPlace":"Thornton, Essa, Simcoe County, Central Ontario, Ontario, L0L 2N0, Canada"}},{"type":"Feature","geometry":{"type":"Point","coordinates":[-79.200593,43.124913]},"properties":{"StationName":"THOROLD TS","CapacityMW":12.0,"VoltageKV":13.8,"UpstreamTS":null,"GeocodedPlace":"Thorold, Niagara Region, Golden Horseshoe, Ontario, Canada"}},{"type":"Feature","geometry":{"type":"Point","coordinates":[-80.06299,44.796592]},"properties":{"StationName":"THUNDER BEACH DS","CapacityMW":3.5,"VoltageKV":8.32,"UpstreamTS":"WAUBAUSHENE TS","GeocodedPlace":"Thunder Beach, Tiny, Simcoe County, Central Ontario, Ontario, L9T 0H1, Canada"}},{"type":"Feature","geometry":{"type":"Point","coordinates":[-80.726501,42.859494]},"properties":{"StationName":"TILLSONBURG DS","CapacityMW":2.5,"VoltageKV":8.32,"UpstreamTS":"TILLSONBURG TS","GeocodedPlace":"Tillsonburg, Oxford County, Southwestern Ontario, Ontario, Canada"}},{"type":"Feature","geometry":{"type":"Point","coordinates":[-80.726501,42.859494]},"properties":{"StationName":"TILLSONBURG TS","CapacityMW":66.4,"VoltageKV":27.6,"UpstreamTS":null,"GeocodedPlace":"Tillsonburg, Oxford County, Southwestern Ontario, Ontario, Canada"}},{"type":"Feature","geometry":{"type":"Point","coordinates":[-78.274758,44.972683]},"properties":{"StationName":"TORY HILL DS","CapacityMW":3.9,"VoltageKV":12.5,"UpstreamTS":"MINDEN TS","GeocodedPlace":"Tory Hill, Highlands East, Haliburton County, Central Ontario, Ontario, Canada"}},{"type":"Feature","geometry":{"type":"Point","coordinates":[-79.71965,43.487893]},"properties":{"StationName":"TRAFALGAR TS","CapacityMW":63.1,"VoltageKV":27.6,"UpstreamTS":null,"GeocodedPlace":"Trafalgar, Oakville, Halton Region, Golden Horseshoe, Ontario, L6H 6Z3, Canada"}},{"type":"Feature","geometry":{"type":"Point","coordinates":[-80.834326,43.682278]},"properties":{"StationName":"TRALEE DS","CapacityMW":4.0,"VoltageKV":8.32,"UpstreamTS":"PALMERSTON TS","GeocodedPlace":"Tralee, Mapleton, Wellington County, Southwestern Ontario, Ontario, N4W 3G8, Canada"}},{"type":"Feature","geometry":{"type":"Point","coordinates":[-80.185842,43.261406]},"properties":{"StationName":"TROY DS","CapacityMW":3.5,"VoltageKV":8.32,"UpstreamTS":"DUNDAS TS","GeocodedPlace":"Troy, Hamilton, Golden Horseshoe, Ontario, L0R 2B0, Canada"}},{"type":"Feature","geometry":{"type":"Point","coordinates":[-79.122677,44.10885]},"properties":{"StationName":"UXBRIDGE DS #1","CapacityMW":5.6,"VoltageKV":27.6,"UpstreamTS":"ARMITAGE TS DESN1","GeocodedPlace":"Uxbridge, Durham Region, Golden Horseshoe, Ontario, Canada"}},{"type":"Feature","geometry":{"type":"Point","coordinates":[-79.122677,44.10885]},"properties":{"StationName":"UXBRIDGE DS #2","CapacityMW":3.9,"VoltageKV":8.32,"UpstreamTS":"ARMITAGE TS DESN1","GeocodedPlace":"Uxbridge, Durham Region, Golden Horseshoe, Ontario, Canada"}},{"type":"Feature","geometry":{"type":"Point","coordinates":[-79.303312,43.746409]},"properties":{"StationName":"VALLEY EAST DS","CapacityMW":4.4,"VoltageKV":12.5,"UpstreamTS":"CLARABELLE TS","GeocodedPlace":"Scarborough Centre\u2014Don Valley East, North York, Toronto, Golden Horseshoe, Ontario, Canada"}},{"type":"Feature","geometry":{"type":"Point","coordinates":[-79.775163,44.750974]},"properties":{"StationName":"VICTORIA HARBOUR DS","CapacityMW":2.7,"VoltageKV":8.32,"UpstreamTS":"WAUBAUSHENE TS","GeocodedPlace":"Victoria Harbour, Tay, Simcoe County, Central Ontario, Ontario, L0K 2A0, Canada"}},{"type":"Feature","geometry":{"type":"Point","coordinates":[-80.792427,42.679533]},"properties":{"StationName":"VIENNA DS","CapacityMW":2.6,"VoltageKV":8.32,"UpstreamTS":"TILLSONBURG TS","GeocodedPlace":"Vienna, Bayham, Elgin County, Southwestern Ontario, Ontario, N0J 1Z0, Canada"}},{"type":"Feature","geometry":{"type":"Point","coordinates":[-79.39238,43.151076]},"properties":{"StationName":"VINELAND DS","CapacityMW":17.0,"VoltageKV":27.6,"UpstreamTS":null,"GeocodedPlace":"Vineland, Lincoln, Niagara Region, Golden Horseshoe, Ontario, L0R 2C0, Canada"}},{"type":"Feature","geometry":{"type":"Point","coordinates":[-80.079051,44.102896]},"properties":{"StationName":"VIOLET HILL DS","CapacityMW":3.6,"VoltageKV":8.32,"UpstreamTS":"ORANGEVILLE TS DESN2","GeocodedPlace":"Violet Hill, Mono, Dufferin County, Central Ontario, Ontario, L9V 3J6, Canada"}},{"type":"Feature","geometry":{"type":"Point","coordinates":[-80.323385,42.762423]},"properties":{"StationName":"VITTORIA DS","CapacityMW":3.4,"VoltageKV":8.32,"UpstreamTS":"NORFOLK TS","GeocodedPlace":"Vittoria, Norfolk County, Southwestern Ontario, Ontario, N0E 1W0, Canada"}},{"type":"Feature","geometry":{"type":"Point","coordinates":[-79.381376,42.928258]},"properties":{"StationName":"WAINFLEET PDS","CapacityMW":1.6,"VoltageKV":8.32,"UpstreamTS":"DUNNVILLE TS","GeocodedPlace":"Wainfleet, Niagara Region, Golden Horseshoe, Ontario, Canada"}},{"type":"Feature","geometry":{"type":"Point","coordinates":[-79.333179,44.752074]},"properties":{"StationName":"WASHAGO DS","CapacityMW":3.7,"VoltageKV":8.32,"UpstreamTS":"ORILLIA TS","GeocodedPlace":"Washago, Severn, Simcoe County, Central Ontario, Ontario, L0K 2B0, Canada"}},{"type":"Feature","geometry":{"type":"Point","coordinates":[-78.8297,44.198737]},"properties":{"StationName":"WASHBURN ISLAND DS","CapacityMW":3.5,"VoltageKV":8.32,"UpstreamTS":"LINDSAY TS","GeocodedPlace":"Washburn Island, Kawartha Lakes, Central Ontario, Ontario, L0B 1E0, Canada"}},{"type":"Feature","geometry":{"type":"Point","coordinates":[-79.710969,44.754404]},"properties":{"StationName":"WAUBAUSHENE TS","CapacityMW":75.9,"VoltageKV":44.0,"UpstreamTS":null,"GeocodedPlace":"Waubaushene, Tay, Simcoe County, Central Ontario, Ontario, L0K 2C0, Canada"}},{"type":"Feature","geometry":{"type":"Point","coordinates":[-78.342332,43.974289]},"properties":{"StationName":"WELCOME DS","CapacityMW":3.2,"VoltageKV":8.32,"UpstreamTS":"PORT HOPE TS DESN1","GeocodedPlace":"Welcome, Port Hope, Northumberland County, Central Ontario, Ontario, L1A 3V2, Canada"}},{"type":"Feature","geometry":{"type":"Point","coordinates":[-80.461499,43.759012]},"properties":{"StationName":"WELLINGTON DS","CapacityMW":3.2,"VoltageKV":8.32,"UpstreamTS":"PICTON TS","GeocodedPlace":"Wellington County, Southwestern Ontario, Ontario, Canada"}},{"type":"Feature","geometry":{"type":"Point","coordinates":[-78.065694,44.32145]},"properties":{"StationName":"WESTWOOD DS","CapacityMW":3.7,"VoltageKV":8.32,"UpstreamTS":"OTONABEE TS DESN2","GeocodedPlace":"Westwood, Asphodel-Norwood, Peterborough County, Central Ontario, Ontario, K0L 2B0, Canada"}},{"type":"Feature","geometry":{"type":"Point","coordinates":[-78.942175,43.87982]},"properties":{"StationName":"WHITBY TS DESN1","CapacityMW":61.3,"VoltageKV":27.6,"UpstreamTS":null,"GeocodedPlace":"Whitby, Durham Region, Golden Horseshoe, Ontario, Canada"}},{"type":"Feature","geometry":{"type":"Point","coordinates":[-78.942175,43.87982]},"properties":{"StationName":"WHITBY TS DESN2","CapacityMW":110.0,"VoltageKV":44.0,"UpstreamTS":null,"GeocodedPlace":"Whitby, Durham Region, Golden Horseshoe, Ontario, Canada"}},{"type":"Feature","geometry":{"type":"Point","coordinates":[-80.317946,42.995866]},"properties":{"StationName":"WILSONVILLE DS","CapacityMW":2.8,"VoltageKV":8.32,"UpstreamTS":"NORFOLK TS","GeocodedPlace":"Wilsonville, Norfolk County, Southwestern Ontario, Ontario, N0E 1L0, Canada"}},{"type":"Feature","geometry":{"type":"Point","coordinates":[-79.65085,43.207749]},"properties":{"StationName":"WINONA TS","CapacityMW":53.3,"VoltageKV":27.6,"UpstreamTS":null,"GeocodedPlace":"Winona, Winona South, Hamilton, Golden Horseshoe, Ontario, L8E 5K0, Canada"}},{"type":"Feature","geometry":{"type":"Point","coordinates":[-80.524721,43.255851]},"properties":{"StationName":"WOLVERTON DS","CapacityMW":18.5,"VoltageKV":27.6,"UpstreamTS":null,"GeocodedPlace":"Wolverton, Blandford-Blenheim, Oxford County, Southwestern Ontario, Ontario, N0J 1G0, Canada"}},{"type":"Feature","geometry":{"type":"Point","coordinates":[-79.592386,43.784898]},"properties":{"StationName":"WOODBRIDGE TS DESN1","CapacityMW":33.9,"VoltageKV":27.6,"UpstreamTS":null,"GeocodedPlace":"Woodbridge, Vaughan, York Region, Golden Horseshoe, Ontario, L4L 9L9, Canada"}},{"type":"Feature","geometry":{"type":"Point","coordinates":[-79.743952,43.137409]},"properties":{"StationName":"WOODBURN DS","CapacityMW":3.1,"VoltageKV":8.32,"UpstreamTS":"NEBO TS DESN1","GeocodedPlace":"Woodburn, Hamilton, Golden Horseshoe, Ontario, L0R 1P0, Canada"}},{"type":"Feature","geometry":{"type":"Point","coordinates":[-80.756298,43.130111]},"properties":{"StationName":"WOODSTOCK TS","CapacityMW":58.4,"VoltageKV":27.6,"UpstreamTS":null,"GeocodedPlace":"Woodstock, Oxford County, Southwestern Ontario, Ontario, Canada"}},{"type":"Feature","geometry":{"type":"Point","coordinates":[-78.98939,44.398329]},"properties":{"StationName":"WOODVILLE DS","CapacityMW":3.9,"VoltageKV":8.32,"UpstreamTS":"BEAVERTON TS","GeocodedPlace":"Woodville, Kawartha Lakes, Central Ontario, Ontario, K0M 2T0, Canada"}},{"type":"Feature","geometry":{"type":"Point","coordinates":[-79.926437,44.654007]},"properties":{"StationName":"WYEVALE DS","CapacityMW":5.0,"VoltageKV":27.6,"UpstreamTS":"WAUBAUSHENE TS","GeocodedPlace":"Wyevale, Tiny, Simcoe County, Central Ontario, Ontario, L0L 2T0, Canada"}}]}