{
"type": "FeatureCollection",
"name": "public_charging_cities_points",
"crs": { "type": "name", "properties": { "name": "urn:ogc:def:crs:OGC:1.3:CRS84" } },
"features": [
{ "type": "Feature", "properties": { "City": "Windsor", "Latitude": 42.3001, "Longitude": -83.0165 }, "geometry": { "type": "Point", "coordinates": [ -83.0165, 42.3001 ] } },
{ "type": "Feature", "properties": { "City": "Cambridge", "Latitude": 43.3601, "Longitude": -80.3127 }, "geometry": { "type": "Point", "coordinates": [ -80.3127, 43.3601 ] } },
{ "type": "Feature", "properties": { "City": "Hamilton", "Latitude": 43.2501, "Longitude": -79.8496 }, "geometry": { "type": "Point", "coordinates": [ -79.8496, 43.2501 ] } },
{ "type": "Feature", "properties": { "City": "Mississauga", "Latitude": 43.5789, "Longitude": -79.6583 }, "geometry": { "type": "Point", "coordinates": [ -79.6583, 43.5789 ] } },
{ "type": "Feature", "properties": { "City": "Oshawa", "Latitude": 43.9001, "Longitude": -78.8496 }, "geometry": { "type": "Point", "coordinates": [ -78.8496, 43.9001 ] } },
{ "type": "Feature", "properties": { "City": "Barrie", "Latitude": 44.4001, "Longitude": -79.6663 }, "geometry": { "type": "Point", "coordinates": [ -79.6663, 44.4001 ] } }
]
}
