{"type":"FeatureCollection","scaleMax":10,"features":[{"type":"Feature","geometry":{"type":"Point","coordinates":[-79.707475,43.68803]},"properties":{"RegularVehicles":10}},{"type":"Feature","geometry":{"type":"Point","coordinates":[-78.920294,43.943842]},"properties":{"RegularVehicles":5}},{"type":"Feature","geometry":{"type":"Point","coordinates":[-79.66811,43.738801]},"properties":{"RegularVehicles":4}},{"type":"Feature","geometry":{"type":"Point","coordinates":[-79.524041,43.89232]},"properties":{"RegularVehicles":3}},{"type":"Feature","geometry":{"type":"Point","coordinates":[-79.706142,43.690441]},"properties":{"RegularVehicles":3}},{"type":"Feature","geometry":{"type":"Point","coordinates":[-79.681423,43.753545]},"properties":{"RegularVehicles":2}},{"type":"Feature","geometry":{"type":"Point","coordinates":[-79.678196,43.81975]},"properties":{"RegularVehicles":2}},{"type":"Feature","geometry":{"type":"Point","coordinates":[-79.681236,43.75081]},"properties":{"RegularVehicles":2}},{"type":"Feature","geometry":{"type":"Point","coordinates":[-79.673485,43.819982]},"properties":{"RegularVehicles":2}},{"type":"Feature","geometry":{"type":"Point","coordinates":[-79.622681,43.773582]},"properties":{"RegularVehicles":2}},{"type":"Feature","geometry":{"type":"Point","coordinates":[-79.557195,43.784208]},"properties":{"RegularVehicles":2}},{"type":"Feature","geometry":{"type":"Point","coordinates":[-79.680094,43.731537]},"properties":{"RegularVehicles":2}},{"type":"Feature","geometry":{"type":"Point","coordinates":[-79.67214,43.729595]},"properties":{"RegularVehicles":2}},{"type":"Feature","geometry":{"type":"Point","coordinates":[-79.691753,43.7299]},"properties":{"RegularVehicles":2}},{"type":"Feature","geometry":{"type":"Point","coordinates":[-79.68052,43.720517]},"properties":{"RegularVehicles":2}},{"type":"Feature","geometry":{"type":"Point","coordinates":[-79.671427,43.810731]},"properties":{"RegularVehicles":2}},{"type":"Feature","geometry":{"type":"Point","coordinates":[-79.667182,43.801023]},"properties":{"RegularVehicles":2}},{"type":"Feature","geometry":{"type":"Point","coordinates":[-79.645977,43.656661]},"properties":{"RegularVehicles":1}},{"type":"Feature","geometry":{"type":"Point","coordinates":[-79.325784,43.719452]},"properties":{"RegularVehicles":1}},{"type":"Feature","geometry":{"type":"Point","coordinates":[-79.684954,43.736449]},"properties":{"RegularVehicles":1}},{"type":"Feature","geometry":{"type":"Point","coordinates":[-79.672323,43.711774]},"properties":{"RegularVehicles":1}},{"type":"Feature","geometry":{"type":"Point","coordinates":[-79.656533,43.820154]},"properties":{"RegularVehicles":1}},{"type":"Feature","geometry":{"type":"Point","coordinates":[-79.272943,43.767441]},"properties":{"RegularVehicles":1}},{"type":"Feature","geometry":{"type":"Point","coordinates":[-79.672591,43.67608]},"properties":{"RegularVehicles":1}},{"type":"Feature","geometry":{"type":"Point","coordinates":[-79.720623,43.677517]},"properties":{"RegularVehicles":1}},{"type":"Feature","geometry":{"type":"Point","coordinates":[-79.69529,43.685815]},"properties":{"RegularVehicles":1}}]}