{"type":"FeatureCollection","scaleMax":10,"features":[{"type":"Feature","geometry":{"type":"Polygon","coordinates":[[[-79.676057,43.680381],[-79.66362,43.680381],[-79.66362,43.689364],[-79.676057,43.689364],[-79.676057,43.680381]]]},"properties":{"RegularVehicles":10}},{"type":"Feature","geometry":{"type":"Polygon","coordinates":[[[-78.892541,43.940891],[-78.880105,43.940891],[-78.880105,43.949874],[-78.892541,43.949874],[-78.892541,43.940891]]]},"properties":{"RegularVehicles":5}},{"type":"Feature","geometry":{"type":"Polygon","coordinates":[[[-79.638747,43.73428],[-79.62631,43.73428],[-79.62631,43.743263],[-79.638747,43.743263],[-79.638747,43.73428]]]},"properties":{"RegularVehicles":4}},{"type":"Feature","geometry":{"type":"Polygon","coordinates":[[[-79.489506,43.886992],[-79.477069,43.886992],[-79.477069,43.895976],[-79.489506,43.895976],[-79.489506,43.886992]]]},"properties":{"RegularVehicles":3}},{"type":"Feature","geometry":{"type":"Polygon","coordinates":[[[-79.676057,43.689364],[-79.66362,43.689364],[-79.66362,43.698347],[-79.676057,43.698347],[-79.676057,43.689364]]]},"properties":{"RegularVehicles":3}},{"type":"Feature","geometry":{"type":"Polygon","coordinates":[[[-79.651183,43.752246],[-79.638747,43.752246],[-79.638747,43.761229],[-79.651183,43.761229],[-79.651183,43.752246]]]},"properties":{"RegularVehicles":2}},{"type":"Feature","geometry":{"type":"Polygon","coordinates":[[[-79.651183,43.815128],[-79.638747,43.815128],[-79.638747,43.824111],[-79.651183,43.824111],[-79.651183,43.815128]]]},"properties":{"RegularVehicles":2}},{"type":"Feature","geometry":{"type":"Polygon","coordinates":[[[-79.651183,43.743263],[-79.638747,43.743263],[-79.638747,43.752246],[-79.651183,43.752246],[-79.651183,43.743263]]]},"properties":{"RegularVehicles":2}},{"type":"Feature","geometry":{"type":"Polygon","coordinates":[[[-79.638747,43.815128],[-79.62631,43.815128],[-79.62631,43.824111],[-79.638747,43.824111],[-79.638747,43.815128]]]},"properties":{"RegularVehicles":2}},{"type":"Feature","geometry":{"type":"Polygon","coordinates":[[[-79.589,43.770212],[-79.576563,43.770212],[-79.576563,43.779195],[-79.589,43.779195],[-79.589,43.770212]]]},"properties":{"RegularVehicles":2}},{"type":"Feature","geometry":{"type":"Polygon","coordinates":[[[-79.526816,43.779195],[-79.514379,43.779195],[-79.514379,43.788178],[-79.526816,43.788178],[-79.526816,43.779195]]]},"properties":{"RegularVehicles":2}},{"type":"Feature","geometry":{"type":"Polygon","coordinates":[[[-79.651183,43.725296],[-79.638747,43.725296],[-79.638747,43.73428],[-79.651183,43.73428],[-79.651183,43.725296]]]},"properties":{"RegularVehicles":2}},{"type":"Feature","geometry":{"type":"Polygon","coordinates":[[[-79.638747,43.725296],[-79.62631,43.725296],[-79.62631,43.73428],[-79.638747,43.73428],[-79.638747,43.725296]]]},"properties":{"RegularVehicles":2}},{"type":"Feature","geometry":{"type":"Polygon","coordinates":[[[-79.66362,43.725296],[-79.651183,43.725296],[-79.651183,43.73428],[-79.66362,43.73428],[-79.66362,43.725296]]]},"properties":{"RegularVehicles":2}},{"type":"Feature","geometry":{"type":"Polygon","coordinates":[[[-79.651183,43.716313],[-79.638747,43.716313],[-79.638747,43.725296],[-79.651183,43.725296],[-79.651183,43.716313]]]},"properties":{"RegularVehicles":2}},{"type":"Feature","geometry":{"type":"Polygon","coordinates":[[[-79.638747,43.806144],[-79.62631,43.806144],[-79.62631,43.815128],[-79.638747,43.815128],[-79.638747,43.806144]]]},"properties":{"RegularVehicles":2}},{"type":"Feature","geometry":{"type":"Polygon","coordinates":[[[-79.638747,43.797161],[-79.62631,43.797161],[-79.62631,43.806144],[-79.638747,43.806144],[-79.638747,43.797161]]]},"properties":{"RegularVehicles":2}},{"type":"Feature","geometry":{"type":"Polygon","coordinates":[[[-79.613873,43.653432],[-79.601436,43.653432],[-79.601436,43.662415],[-79.613873,43.662415],[-79.613873,43.653432]]]},"properties":{"RegularVehicles":1}},{"type":"Feature","geometry":{"type":"Polygon","coordinates":[[[-79.290518,43.716313],[-79.278081,43.716313],[-79.278081,43.725296],[-79.290518,43.725296],[-79.290518,43.716313]]]},"properties":{"RegularVehicles":1}},{"type":"Feature","geometry":{"type":"Polygon","coordinates":[[[-79.651183,43.73428],[-79.638747,43.73428],[-79.638747,43.743263],[-79.651183,43.743263],[-79.651183,43.73428]]]},"properties":{"RegularVehicles":1}},{"type":"Feature","geometry":{"type":"Polygon","coordinates":[[[-79.638747,43.70733],[-79.62631,43.70733],[-79.62631,43.716313],[-79.638747,43.716313],[-79.638747,43.70733]]]},"properties":{"RegularVehicles":1}},{"type":"Feature","geometry":{"type":"Polygon","coordinates":[[[-79.62631,43.815128],[-79.613873,43.815128],[-79.613873,43.824111],[-79.62631,43.824111],[-79.62631,43.815128]]]},"properties":{"RegularVehicles":1}},{"type":"Feature","geometry":{"type":"Polygon","coordinates":[[[-79.240771,43.761229],[-79.228334,43.761229],[-79.228334,43.770212],[-79.240771,43.770212],[-79.240771,43.761229]]]},"properties":{"RegularVehicles":1}},{"type":"Feature","geometry":{"type":"Polygon","coordinates":[[[-79.638747,43.671398],[-79.62631,43.671398],[-79.62631,43.680381],[-79.638747,43.680381],[-79.638747,43.671398]]]},"properties":{"RegularVehicles":1}},{"type":"Feature","geometry":{"type":"Polygon","coordinates":[[[-79.688494,43.671398],[-79.676057,43.671398],[-79.676057,43.680381],[-79.688494,43.680381],[-79.688494,43.671398]]]},"properties":{"RegularVehicles":1}},{"type":"Feature","geometry":{"type":"Polygon","coordinates":[[[-79.66362,43.680381],[-79.651183,43.680381],[-79.651183,43.689364],[-79.66362,43.689364],[-79.66362,43.680381]]]},"properties":{"RegularVehicles":1}}]}