{
"type": "FeatureCollection",
"name": "public_charging_fsas",
"crs": { "type": "name", "properties": { "name": "urn:ogc:def:crs:EPSG::3347" } },
"features": [
{ "type": "Feature", "properties": { "CFSAUID": "L6S", "DGUID": "2021A0011L6S", "PRUID": "35", "PRNAME": "Ontario", "LANDAREA": 41.2511 }, "geometry": { "type": "Polygon", "coordinates": [ [ [ 7202210.128571465611458, 935099.262857176363468 ], [ 7202246.397142894566059, 935036.025714319199324 ], [ 7202475.688571467995644, 934720.582857176661491 ], [ 7202541.300000041723251, 934620.645714320242405 ], [ 7202937.042857185006142, 934070.100000035017729 ], [ 7202961.754285752773285, 934044.631428606808186 ], [ 7202963.611428610980511, 934028.320000033825636 ], [ 7202973.080000042915344, 933992.568571463227272 ], [ 7202980.628571465611458, 933979.345714319497347 ], [ 7202997.094285756349564, 933951.068571463227272 ], [ 7202995.862857185304165, 933940.442857176065445 ], [ 7202979.034285753965378, 933932.000000033527613 ], [ 7202802.762857183814049, 933847.077142890542746 ], [ 7202737.037142895162106, 933755.405714318156242 ], [ 7202693.042857185006142, 933684.888571463525295 ], [ 7202669.294285751879215, 933700.40857146307826 ], [ 7202633.848571471869946, 933724.277142889797688 ], [ 7202593.651428610086441, 933751.457142889499664 ], [ 7202383.314285755157471, 933899.225714318454266 ], [ 7202313.014285758137703, 933955.371428605169058 ], [ 7202222.034285753965378, 934008.188571460545063 ], [ 7202212.877142898738384, 933990.934285748749971 ], [ 7202123.925714328885078, 933823.334285747259855 ], [ 7202009.32857146859169, 933607.431428603827953 ], [ 7201800.631428614258766, 933211.917142890393734 ], [ 7201799.231428608298302, 933209.26000003516674 ], [ 7201633.111428610980511, 932894.437142889946699 ], [ 7201610.540000043809414, 932851.654285747557878 ], [ 7201603.740000039339066, 932838.780000034719706 ], [ 7201544.374285757541656, 932727.702857177704573 ], [ 7201544.160000041127205, 932727.302857175469398 ], [ 7201528.414285756647587, 932697.842857174575329 ], [ 7201522.608571469783783, 932686.654285747557878 ], [ 7201522.545714326202869, 932686.537142891436815 ], [ 7201519.27428575605154, 932680.234285749495029 ], [ 7201465.714285753667355, 932577.091428603976965 ], [ 7201426.997142896056175, 932501.191428605467081 ], [ 7201388.668571472167969, 932427.757142890244722 ], [ 7201366.702857181429863, 932385.685714319348335 ], [ 7201249.117142900824547, 932163.565714318305254 ], [ 7201193.168571472167969, 932057.551428604871035 ], [ 7201162.440000042319298, 931998.682857178151608 ], [ 7201157.99142861366272, 931990.162857174873352 ], [ 7201157.411428615450859, 931989.042857177555561 ], [ 7200890.711428612470627, 931487.668571460992098 ], [ 7200887.73428575694561, 931482.00285717472434 ], [ 7200887.508571468293667, 931481.571428604424 ], [ 7200880.105714328587055, 931467.460000034421682 ], [ 7200879.885714329779148, 931467.042857177555561 ], [ 7200877.897142894566059, 931463.254285749047995 ], [ 7200851.354285754263401, 931412.751428604125977 ], [ 7200723.371428608894348, 931169.262857176363468 ], [ 7200687.228571467101574, 931102.177142892032862 ], [ 7200618.82857146859169, 930972.974285747855902 ], [ 7200522.605714328587055, 930791.225714318454266 ], [ 7200493.980000041425228, 930736.751428604125977 ], [ 7200338.314285755157471, 930440.571428604424 ], [ 7200243.220000043511391, 930260.077142890542746 ], [ 7200243.011428609490395, 930259.682857178151608 ], [ 7200232.362857185304165, 930267.828571461141109 ], [ 7200231.197142899036407, 930268.72000003233552 ], [ 7199957.254285752773285, 930458.285714320838451 ], [ 7199864.820000037550926, 930521.977142889052629 ], [ 7199832.762857183814049, 930544.365714319050312 ], [ 7199812.754285752773285, 930557.460000034421682 ], [ 7199812.617142900824547, 930557.551428604871035 ], [ 7199778.594285756349564, 930581.820000033825636 ], [ 7199754.751428611576557, 930598.828571461141109 ], [ 7199483.928571470081806, 930792.022857178002596 ], [ 7199458.360000044107437, 930810.345714319497347 ], [ 7199446.591428615152836, 930818.50285717472434 ], [ 7199422.068571470677853, 930834.651428606361151 ], [ 7199387.137142896652222, 930857.400000032037497 ], [ 7199347.842857182025909, 930879.548571463674307 ], [ 7199259.340000040829182, 930921.051428604871035 ], [ 7199234.468571469187737, 930932.242857176810503 ], [ 7199101.840000040829182, 931023.117142889648676 ], [ 7199068.782857187092304, 931045.328571461141109 ], [ 7198922.157142899930477, 931138.914285749197006 ], [ 7198712.822857186198235, 931291.334285747259855 ], [ 7198652.568571470677853, 931333.417142890393734 ], [ 7198171.711428612470627, 931669.334285747259855 ], [ 7197862.017142899334431, 931884.800000034272671 ], [ 7197718.214285753667355, 931985.660000033676624 ], [ 7197374.305714324116707, 932218.454285748302937 ], [ 7197003.068571470677853, 932476.048571463674307 ], [ 7196956.591428615152836, 932509.400000032037497 ], [ 7196843.340000040829182, 932584.997142892330885 ], [ 7196789.037142895162106, 932480.722857177257538 ], [ 7196773.325714327394962, 932469.608571462333202 ], [ 7196671.102857179939747, 932277.788571462035179 ], [ 7196427.342857182025909, 931819.060000032186508 ], [ 7196317.711428612470627, 931613.951428603380919 ], [ 7196207.565714329481125, 931401.400000032037497 ], [ 7196179.245714329183102, 931347.585714317858219 ], [ 7196149.865714326500893, 931291.945714320987463 ], [ 7196035.951428614556789, 931077.040000032633543 ], [ 7196032.411428615450859, 931070.362857177853584 ], [ 7195999.900000043213367, 931007.385714318603277 ], [ 7195976.617142900824547, 930962.694285746663809 ], [ 7195965.720000043511391, 930942.037142891436815 ], [ 7195935.157142899930477, 930885.660000033676624 ], [ 7195936.297142900526524, 930873.380000032484531 ], [ 7195918.648571468889713, 930838.000000033527613 ], [ 7195908.757142893970013, 930817.528571460396051 ], [ 7195878.417142897844315, 930759.637142889201641 ], [ 7195855.705714322626591, 930716.302857175469398 ], [ 7195773.537142895162106, 930559.520000033080578 ], [ 7195767.257142893970013, 930548.005714319646358 ], [ 7195765.637142896652222, 930544.797142889350653 ], [ 7195762.637142896652222, 930538.862857177853584 ], [ 7195742.280000038444996, 930500.288571462035179 ], [ 7195724.488571472465992, 930466.574285749346018 ], [ 7195712.722857184708118, 930444.26000003516674 ], [ 7195669.151428610086441, 930361.637142889201641 ], [ 7195569.591428615152836, 930172.837142892181873 ], [ 7195535.237142898142338, 930108.500000033527613 ], [ 7195525.817142896354198, 930091.225714318454266 ], [ 7195457.460000038146973, 929960.534285746514797 ], [ 7195443.5857143253088, 929950.788571462035179 ], [ 7195230.517142899334431, 929541.537142891436815 ], [ 7195221.282857187092304, 929523.797142889350653 ], [ 7195209.405714325606823, 929500.985714320093393 ], [ 7195159.605714328587055, 929405.331428606063128 ], [ 7195160.751428611576557, 929393.051428604871035 ], [ 7195139.582857184112072, 929353.937142889946699 ], [ 7195048.642857186496258, 929182.877142891287804 ], [ 7195020.691428609192371, 929130.308571461588144 ], [ 7194976.562857180833817, 929047.311428606510162 ], [ 7194939.42285718023777, 928975.200000032782555 ], [ 7194920.945714324712753, 928938.634285748004913 ], [ 7194915.03142861276865, 928927.431428603827953 ], [ 7194910.040000043809414, 928917.980000033974648 ], [ 7194900.722857184708118, 928923.608571462333202 ], [ 7194892.408571466803551, 928929.420000035315752 ], [ 7194661.151428610086441, 929089.114285748451948 ], [ 7194572.391428612172604, 929150.40857146307826 ], [ 7194276.008571468293667, 929349.585714317858219 ], [ 7194255.605714328587055, 929363.90857146307826 ], [ 7193994.462857186794281, 929547.234285749495029 ], [ 7193972.262857183814049, 929560.980000033974648 ], [ 7193947.494285754859447, 929579.022857178002596 ], [ 7193912.542857185006142, 929604.482857175171375 ], [ 7193599.19428575783968, 929817.288571462035179 ], [ 7193583.762857183814049, 929828.077142890542746 ], [ 7193570.522857181727886, 929838.211428605020046 ], [ 7193568.151428610086441, 929839.874285746365786 ], [ 7193309.53142861276865, 930019.740000031888485 ], [ 7193280.637142896652222, 930040.185714319348335 ], [ 7193208.451428614556789, 930091.271428603678942 ], [ 7193195.92285718023777, 930097.371428605169058 ], [ 7193178.297142900526524, 930108.81428574770689 ], [ 7192919.217142894864082, 930290.360000032931566 ], [ 7192850.151428610086441, 930338.754285749047995 ], [ 7192732.731428608298302, 930421.037142891436815 ], [ 7192685.468571469187737, 930454.154285747557878 ], [ 7192484.214285753667355, 930588.597142890095711 ], [ 7192401.637142896652222, 930649.231428604573011 ], [ 7192319.931428611278534, 930718.080000031739473 ], [ 7192312.151428610086441, 930724.637142889201641 ], [ 7192305.448571465909481, 930731.045714318752289 ], [ 7192312.822857186198235, 930743.434285748749971 ], [ 7192324.851428613066673, 930763.642857175320387 ], [ 7192337.765714325010777, 930784.654285747557878 ], [ 7192372.191428609192371, 930842.751428604125977 ], [ 7192380.968571469187737, 930857.822857175022364 ], [ 7192510.12571432441473, 931103.280000034719706 ], [ 7192508.157142899930477, 931114.36857146397233 ], [ 7192596.377142898738384, 931279.768571462482214 ], [ 7192623.62571432441473, 931331.402857176959515 ], [ 7192643.551428608596325, 931342.2057143189013 ], [ 7192743.431428611278534, 931535.66571431979537 ], [ 7192917.722857184708118, 931860.877142891287804 ], [ 7192931.105714328587055, 931886.174285747110844 ], [ 7192930.445714324712753, 931908.382857177406549 ], [ 7192946.954285755753517, 931939.562857177108526 ], [ 7193159.697142899036407, 932341.540000032633543 ], [ 7193170.597142897546291, 932362.185714319348335 ], [ 7193233.557142898440361, 932482.614285748451948 ], [ 7193325.702857181429863, 932664.311428606510162 ], [ 7193405.222857184708118, 932815.034285746514797 ], [ 7193533.528571471571922, 933058.225714318454266 ], [ 7193582.637142896652222, 933151.308571461588144 ], [ 7193594.894285753369331, 933174.40857146307826 ], [ 7193721.077142894268036, 933412.717142891138792 ], [ 7193793.837142899632454, 933550.134285748004913 ], [ 7193825.157142899930477, 933639.537142891436815 ], [ 7193850.974285751581192, 933727.100000035017729 ], [ 7193864.168571472167969, 933767.468571461737156 ], [ 7193872.514285758137703, 933790.788571462035179 ], [ 7193879.848571471869946, 933813.92285717651248 ], [ 7193883.197142899036407, 933816.571428604424 ], [ 7193891.708571471273899, 933823.302857175469398 ], [ 7193905.908571466803551, 933866.377142891287804 ], [ 7193926.237142898142338, 933921.977142889052629 ], [ 7194001.042857185006142, 934063.157142892479897 ], [ 7194137.362857185304165, 934309.537142891436815 ], [ 7194179.03142861276865, 934384.845714319497347 ], [ 7194201.23428575694561, 934426.097142890095711 ], [ 7194362.120000042021275, 934727.208571463823318 ], [ 7194371.931428611278534, 934745.574285749346018 ], [ 7194443.745714329183102, 934872.282857175916433 ], [ 7194444.014285758137703, 934872.751428604125977 ], [ 7194500.302857182919979, 934948.240000031888485 ], [ 7194600.808571472764015, 935061.728571463376284 ], [ 7194691.945714324712753, 935169.400000032037497 ], [ 7194726.428571470081806, 935221.27428574860096 ], [ 7194837.128571465611458, 935406.240000031888485 ], [ 7194871.962857186794281, 935456.097142890095711 ], [ 7194880.685714326798916, 935471.72000003233552 ], [ 7194935.100000038743019, 935569.194285746663809 ], [ 7194947.834285758435726, 935591.211428605020046 ], [ 7194956.600000038743019, 935606.282857175916433 ], [ 7194973.300000041723251, 935635.240000031888485 ], [ 7194979.580000042915344, 935646.751428604125977 ], [ 7194978.911428615450859, 935662.237142890691757 ], [ 7195052.897142894566059, 935795.700000032782555 ], [ 7195064.248571470379829, 935816.177142892032862 ], [ 7195124.880000039935112, 935925.545714318752289 ], [ 7195139.277142897248268, 935951.514285746961832 ], [ 7195159.520000040531158, 935988.028571460396051 ], [ 7195199.23428575694561, 936038.091428603976965 ], [ 7195222.780000038444996, 936108.428571462631226 ], [ 7195277.885714329779148, 936201.920000035315752 ], [ 7195283.920000039041042, 936209.005714319646358 ], [ 7195306.73428575694561, 936238.228571463376284 ], [ 7195409.605714328587055, 936417.757142890244722 ], [ 7195507.262857183814049, 936599.642857175320387 ], [ 7195511.971428610384464, 936608.414285749197006 ], [ 7195646.457142896950245, 936852.711428605020046 ], [ 7196031.965714327991009, 936586.085714317858219 ], [ 7196268.708571471273899, 936422.365714319050312 ], [ 7196476.614285752177238, 936278.771428603678942 ], [ 7196822.134285755455494, 936040.131428606808186 ], [ 7196952.342857182025909, 935950.928571462631226 ], [ 7197175.331428609788418, 935796.025714319199324 ], [ 7197228.282857187092304, 935758.757142890244722 ], [ 7197243.245714329183102, 935748.225714318454266 ], [ 7197268.765714325010777, 935730.265714317560196 ], [ 7197495.120000042021275, 935570.957142889499664 ], [ 7197719.485714323818684, 935414.925714317709208 ], [ 7197735.905714325606823, 935403.508571460843086 ], [ 7197895.200000040233135, 935292.728571463376284 ], [ 7197957.831428609788418, 935249.174285747110844 ], [ 7198057.43714290112257, 935179.905714318156242 ], [ 7198116.668571472167969, 935137.948571462184191 ], [ 7198198.311428613960743, 935080.114285748451948 ], [ 7198226.297142900526524, 935062.717142891138792 ], [ 7198544.425714328885078, 935619.622857175767422 ], [ 7198575.014285758137703, 935673.168571460992098 ], [ 7198593.842857182025909, 935707.708571463823318 ], [ 7198596.325714327394962, 935711.271428603678942 ], [ 7198596.588571466505527, 935711.731428604573011 ], [ 7198609.537142895162106, 935734.234285749495029 ], [ 7198616.985714323818684, 935747.174285747110844 ], [ 7198624.505714327096939, 935759.114285748451948 ], [ 7198625.100000038743019, 935760.05714289098978 ], [ 7198657.554285757243633, 935811.571428604424 ], [ 7198702.62571432441473, 935879.888571463525295 ], [ 7198763.045714326202869, 935961.322857175022364 ], [ 7198855.931428611278534, 936076.608571462333202 ], [ 7198859.428571470081806, 936080.345714319497347 ], [ 7198906.997142896056175, 936134.551428604871035 ], [ 7198967.431428611278534, 936198.311428606510162 ], [ 7199006.602857179939747, 936235.42285717651248 ], [ 7199056.797142900526524, 936280.722857177257538 ], [ 7199109.651428610086441, 936328.588571462780237 ], [ 7199221.308571472764015, 936416.714285746216774 ], [ 7199259.237142898142338, 936446.651428606361151 ], [ 7199301.671428613364697, 936477.065714318305254 ], [ 7199413.157142899930477, 936551.974285747855902 ], [ 7199523.122857183218002, 936612.048571463674307 ], [ 7199663.620000042021275, 936681.7057143189013 ], [ 7199868.208571471273899, 936771.071428604424 ], [ 7199888.482857182621956, 936779.865714319050312 ], [ 7199910.597142897546291, 936790.034285746514797 ], [ 7200146.371428608894348, 936891.171428605914116 ], [ 7200269.605714328587055, 936943.742857176810503 ], [ 7200432.231428608298302, 937014.734285749495029 ], [ 7200475.631428614258766, 937033.877142891287804 ], [ 7200484.748571470379829, 937046.934285748749971 ], [ 7200830.4771429002285, 937194.268571462482214 ], [ 7200839.857142895460129, 937180.440000034868717 ], [ 7200909.748571470379829, 937066.26000003516674 ], [ 7200925.320000037550926, 937043.022857178002596 ], [ 7200946.817142896354198, 937015.642857175320387 ], [ 7200965.588571466505527, 936991.951428603380919 ], [ 7201015.488571472465992, 936921.780000034719706 ], [ 7201032.562857180833817, 936898.248571462929249 ], [ 7201084.334285758435726, 936826.900000032037497 ], [ 7201196.851428613066673, 936661.771428603678942 ], [ 7201251.925714328885078, 936580.048571463674307 ], [ 7201275.040000043809414, 936543.597142890095711 ], [ 7201297.257142893970013, 936512.185714319348335 ], [ 7201332.668571472167969, 936459.197142891585827 ], [ 7201349.782857187092304, 936433.120000034570694 ], [ 7201365.705714322626591, 936407.865714319050312 ], [ 7201388.462857186794281, 936373.431428603827953 ], [ 7201406.93714290112257, 936345.520000033080578 ], [ 7201458.700000040233135, 936259.040000032633543 ], [ 7201499.654285751283169, 936174.800000034272671 ], [ 7201581.225714325904846, 936008.340000033378601 ], [ 7201601.942857183516026, 935966.185714319348335 ], [ 7201735.002857185900211, 935685.197142891585827 ], [ 7201768.580000042915344, 935620.957142889499664 ], [ 7201798.620000042021275, 935572.942857176065445 ], [ 7201804.885714329779148, 935562.925714317709208 ], [ 7201821.228571467101574, 935541.711428605020046 ], [ 7201821.791428610682487, 935540.977142889052629 ], [ 7201830.300000041723251, 935530.00285717472434 ], [ 7201830.717142894864082, 935529.528571460396051 ], [ 7201856.160000041127205, 935500.797142889350653 ], [ 7201856.268571466207504, 935500.682857178151608 ], [ 7201871.337142899632454, 935485.102857176214457 ], [ 7201871.608571469783783, 935484.822857175022364 ], [ 7201880.380000039935112, 935475.905714318156242 ], [ 7201886.768571466207504, 935469.414285749197006 ], [ 7201894.685714326798916, 935461.365714319050312 ], [ 7201954.777142897248268, 935407.037142891436815 ], [ 7202051.174285754561424, 935323.402857176959515 ], [ 7202102.948571465909481, 935277.245714318007231 ], [ 7202126.037142895162106, 935260.568571463227272 ], [ 7202127.088571466505527, 935259.977142889052629 ], [ 7202206.702857181429863, 935111.685714319348335 ], [ 7202210.128571465611458, 935099.262857176363468 ] ] ] } },
{ "type": "Feature", "properties": { "CFSAUID": "L6T", "DGUID": "2021A0011L6T", "PRUID": "35", "PRNAME": "Ontario", "LANDAREA": 19.2571 }, "geometry": { "type": "Polygon", "coordinates": [ [ [ 7199716.880000039935112, 926927.917142890393734 ], [ 7199664.265714325010777, 926660.894285749644041 ], [ 7199659.900000043213367, 926617.474285747855902 ], [ 7199569.622857183218002, 925646.142857175320387 ], [ 7199457.757142893970013, 925723.754285749047995 ], [ 7199424.802857182919979, 925751.200000032782555 ], [ 7199391.88285718113184, 925790.091428603976965 ], [ 7199360.388571470975876, 925838.61142860352993 ], [ 7199324.611428610980511, 925829.140000034123659 ], [ 7199308.414285756647587, 925832.50285717472434 ], [ 7199101.597142897546291, 925977.860000032931566 ], [ 7199074.814285755157471, 925993.914285749197006 ], [ 7199048.637142896652222, 926000.722857177257538 ], [ 7199032.554285757243633, 926012.40857146307826 ], [ 7199026.517142899334431, 926017.254285749047995 ], [ 7199008.62571432441473, 926040.008571460843086 ], [ 7199002.07142861187458, 926048.345714319497347 ], [ 7198971.508571468293667, 926087.214285746216774 ], [ 7198934.002857185900211, 926110.485714320093393 ], [ 7198927.482857182621956, 926114.531428605318069 ], [ 7198780.231428608298302, 926205.894285749644041 ], [ 7198580.074285753071308, 926343.071428604424 ], [ 7198156.42285718023777, 926643.468571461737156 ], [ 7198143.825714327394962, 926655.794285748153925 ], [ 7198132.18000003695488, 926674.540000032633543 ], [ 7198124.748571470379829, 926692.988571461290121 ], [ 7198105.228571467101574, 926691.597142890095711 ], [ 7198091.577142894268036, 926692.302857175469398 ], [ 7198079.408571466803551, 926696.380000032484531 ], [ 7197971.525714322924614, 926770.865714319050312 ], [ 7197838.800000041723251, 926821.188571460545063 ], [ 7197713.008571468293667, 926949.714285746216774 ], [ 7197698.028571471571922, 926964.860000032931566 ], [ 7197676.248571470379829, 926986.882857177406549 ], [ 7197675.077142894268036, 926987.857142891734838 ], [ 7197612.957142896950245, 927039.554285746067762 ], [ 7197539.771428614854813, 927095.865714319050312 ], [ 7197531.877142898738384, 927101.525714319199324 ], [ 7197501.434285752475262, 927123.351428605616093 ], [ 7197488.442857183516026, 927132.662857174873352 ], [ 7197441.842857182025909, 927166.071428604424 ], [ 7197396.048571467399597, 927198.905714318156242 ], [ 7197213.220000043511391, 927327.61142860352993 ], [ 7196960.025714322924614, 927505.851428605616093 ], [ 7196806.017142899334431, 927611.685714319348335 ], [ 7196798.900000043213367, 927616.660000033676624 ], [ 7196787.017142899334431, 927624.965714320540428 ], [ 7196328.871428608894348, 927944.200000032782555 ], [ 7196267.128571465611458, 927987.342857174575329 ], [ 7196023.897142894566059, 928156.411428604274988 ], [ 7196019.151428610086441, 928159.734285749495029 ], [ 7196001.514285758137703, 928171.171428605914116 ], [ 7195995.577142894268036, 928175.320000033825636 ], [ 7195727.782857187092304, 928359.800000034272671 ], [ 7195454.874285757541656, 928549.617142889648676 ], [ 7195445.380000039935112, 928556.254285749047995 ], [ 7195409.105714328587055, 928578.945714320987463 ], [ 7195376.880000039935112, 928602.037142891436815 ], [ 7195260.160000041127205, 928685.680000033229589 ], [ 7195057.73428575694561, 928818.300000034272671 ], [ 7194928.500000037252903, 928907.734285749495029 ], [ 7194919.362857185304165, 928912.35428574681282 ], [ 7194910.040000043809414, 928917.980000033974648 ], [ 7194915.03142861276865, 928927.431428603827953 ], [ 7194920.945714324712753, 928938.634285748004913 ], [ 7194939.42285718023777, 928975.200000032782555 ], [ 7194976.562857180833817, 929047.311428606510162 ], [ 7195020.691428609192371, 929130.308571461588144 ], [ 7195048.642857186496258, 929182.877142891287804 ], [ 7195139.582857184112072, 929353.937142889946699 ], [ 7195160.751428611576557, 929393.051428604871035 ], [ 7195159.605714328587055, 929405.331428606063128 ], [ 7195209.405714325606823, 929500.985714320093393 ], [ 7195221.282857187092304, 929523.797142889350653 ], [ 7195230.517142899334431, 929541.537142891436815 ], [ 7195443.5857143253088, 929950.788571462035179 ], [ 7195457.460000038146973, 929960.534285746514797 ], [ 7195525.817142896354198, 930091.225714318454266 ], [ 7195535.237142898142338, 930108.500000033527613 ], [ 7195569.591428615152836, 930172.837142892181873 ], [ 7195669.151428610086441, 930361.637142889201641 ], [ 7195712.722857184708118, 930444.26000003516674 ], [ 7195724.488571472465992, 930466.574285749346018 ], [ 7195742.280000038444996, 930500.288571462035179 ], [ 7195762.637142896652222, 930538.862857177853584 ], [ 7195765.637142896652222, 930544.797142889350653 ], [ 7195767.257142893970013, 930548.005714319646358 ], [ 7195773.537142895162106, 930559.520000033080578 ], [ 7195855.705714322626591, 930716.302857175469398 ], [ 7195878.417142897844315, 930759.637142889201641 ], [ 7195908.757142893970013, 930817.528571460396051 ], [ 7195918.648571468889713, 930838.000000033527613 ], [ 7195936.297142900526524, 930873.380000032484531 ], [ 7195935.157142899930477, 930885.660000033676624 ], [ 7195965.720000043511391, 930942.037142891436815 ], [ 7195976.617142900824547, 930962.694285746663809 ], [ 7195999.900000043213367, 931007.385714318603277 ], [ 7196032.411428615450859, 931070.362857177853584 ], [ 7196035.951428614556789, 931077.040000032633543 ], [ 7196149.865714326500893, 931291.945714320987463 ], [ 7196179.245714329183102, 931347.585714317858219 ], [ 7196207.565714329481125, 931401.400000032037497 ], [ 7196317.711428612470627, 931613.951428603380919 ], [ 7196427.342857182025909, 931819.060000032186508 ], [ 7196671.102857179939747, 932277.788571462035179 ], [ 7196773.325714327394962, 932469.608571462333202 ], [ 7196789.037142895162106, 932480.722857177257538 ], [ 7196843.340000040829182, 932584.997142892330885 ], [ 7196956.591428615152836, 932509.400000032037497 ], [ 7197003.068571470677853, 932476.048571463674307 ], [ 7197374.305714324116707, 932218.454285748302937 ], [ 7197718.214285753667355, 931985.660000033676624 ], [ 7197862.017142899334431, 931884.800000034272671 ], [ 7198171.711428612470627, 931669.334285747259855 ], [ 7198652.568571470677853, 931333.417142890393734 ], [ 7198712.822857186198235, 931291.334285747259855 ], [ 7198922.157142899930477, 931138.914285749197006 ], [ 7199068.782857187092304, 931045.328571461141109 ], [ 7199101.840000040829182, 931023.117142889648676 ], [ 7199234.468571469187737, 930932.242857176810503 ], [ 7199259.340000040829182, 930921.051428604871035 ], [ 7199347.842857182025909, 930879.548571463674307 ], [ 7199387.137142896652222, 930857.400000032037497 ], [ 7199422.068571470677853, 930834.651428606361151 ], [ 7199446.591428615152836, 930818.50285717472434 ], [ 7199458.360000044107437, 930810.345714319497347 ], [ 7199483.928571470081806, 930792.022857178002596 ], [ 7199754.751428611576557, 930598.828571461141109 ], [ 7199778.594285756349564, 930581.820000033825636 ], [ 7199812.617142900824547, 930557.551428604871035 ], [ 7199812.754285752773285, 930557.460000034421682 ], [ 7199832.762857183814049, 930544.365714319050312 ], [ 7199864.820000037550926, 930521.977142889052629 ], [ 7199957.254285752773285, 930458.285714320838451 ], [ 7200231.197142899036407, 930268.72000003233552 ], [ 7200232.362857185304165, 930267.828571461141109 ], [ 7200243.011428609490395, 930259.682857178151608 ], [ 7200232.634285755455494, 930239.991428606212139 ], [ 7200231.262857183814049, 930237.488571461290121 ], [ 7200198.962857186794281, 930178.90857146307826 ], [ 7200195.745714329183102, 930172.745714318007231 ], [ 7200184.380000039935112, 930151.045714318752289 ], [ 7200156.391428612172604, 930097.091428603976965 ], [ 7200124.322857186198235, 930037.594285748898983 ], [ 7200102.034285753965378, 929999.882857177406549 ], [ 7200100.434285752475262, 929997.477142889052629 ], [ 7200103.857142895460129, 929984.560000032186508 ], [ 7200158.928571470081806, 929776.700000032782555 ], [ 7200165.851428613066673, 929750.568571463227272 ], [ 7200185.051428608596325, 929678.100000035017729 ], [ 7200250.682857185602188, 929430.382857177406549 ], [ 7200212.248571470379829, 929302.900000032037497 ], [ 7200163.985714323818684, 929142.817142888903618 ], [ 7200035.717142894864082, 928717.36857146397233 ], [ 7200023.042857185006142, 928675.034285746514797 ], [ 7199964.117142900824547, 928423.468571461737156 ], [ 7199936.100000038743019, 928240.385714318603277 ], [ 7199878.900000043213367, 927866.600000035017729 ], [ 7199872.297142900526524, 927823.445714320987463 ], [ 7199793.831428609788418, 927343.085714317858219 ], [ 7199770.322857186198235, 927199.157142892479897 ], [ 7199766.5857143253088, 927180.197142891585827 ], [ 7199716.880000039935112, 926927.917142890393734 ] ] ] } }
]
}
