{
"type": "FeatureCollection",
"name": "refueling_stops",
"crs": { "type": "name", "properties": { "name": "urn:ogc:def:crs:OGC:1.3:CRS84" } },
"features": [
{ "type": "Feature", "properties": { "City": "Kingston", "Latitude": 44.233334, "Longitude": -76.5, "Count": 2, "Unnamed: 4": null }, "geometry": { "type": "Point", "coordinates": [ -76.5, 44.233334 ] } },
{ "type": "Feature", "properties": { "City": "Sudbury", "Latitude": 46.493919, "Longitude": -80.995415, "Count": 1, "Unnamed: 4": null }, "geometry": { "type": "Point", "coordinates": [ -80.995415, 46.493919 ] } },
{ "type": "Feature", "properties": { "City": "Brampton", "Latitude": 43.683334, "Longitude": -79.76667, "Count": 1, "Unnamed: 4": null }, "geometry": { "type": "Point", "coordinates": [ -79.76667, 43.683334 ] } },
{ "type": "Feature", "properties": { "City": "Bolton", "Latitude": 43.874199, "Longitude": -79.730659, "Count": 1, "Unnamed: 4": null }, "geometry": { "type": "Point", "coordinates": [ -79.730659, 43.874199 ] } }
]
}
